{"type":"FeatureCollection","features":[{"type":"Feature","properties":{"POSTCODE":"01095","PC_NAME":"Wilbraham","Municipality":"Wilbraham","State":"MA","County":"Hampden County"},"geometry":{"type":"Polygon","coordinates":[[[-72.38887,42.15131],[-72.38819,42.14826],[-72.38784,42.14661],[-72.38758,42.14518],[-72.3875,42.14486],[-72.38738,42.14452],[-72.38721,42.14324],[-72.38538,42.13364],[-72.3838,42.12508],[-72.38378,42.125],[-72.38244,42.11804],[-72.38144,42.11282],[-72.38062,42.10856],[-72.37959,42.10314],[-72.38691,42.10232],[-72.3982,42.10113],[-72.40288,42.10054],[-72.40607,42.10014],[-72.41451,42.09931],[-72.41534,42.09728],[-72.41638,42.09473],[-72.41818,42.09055],[-72.42205,42.09012],[-72.4313,42.0891],[-72.43449,42.08887],[-72.45223,42.08679],[-72.46081,42.08579],[-72.46522,42.08531],[-72.46999,42.08478],[-72.47055,42.0874],[-72.47102,42.08962],[-72.47114,42.09012],[-72.47148,42.09172],[-72.47249,42.09655],[-72.47388,42.10319],[-72.47403,42.10395],[-72.47516,42.10982],[-72.47646,42.11656],[-72.47673,42.11797],[-72.47694,42.11902],[-72.47707,42.11969],[-72.47735,42.12115],[-72.47766,42.12275],[-72.47839,42.12668],[-72.4784,42.12672],[-72.47865,42.128],[-72.4797,42.13339],[-72.48006,42.13526],[-72.48056,42.13792],[-72.48104,42.13982],[-72.48111,42.14011],[-72.4812,42.14046],[-72.48132,42.14093],[-72.48199,42.14357],[-72.48232,42.1449],[-72.48233,42.14492],[-72.48266,42.14621],[-72.48248,42.14629],[-72.48265,42.14648],[-72.48274,42.14788],[-72.48288,42.14894],[-72.48317,42.15029],[-72.48317,42.15032],[-72.48375,42.15323],[-72.48421,42.15528],[-72.48433,42.15613],[-72.48325,42.15551],[-72.48184,42.15478],[-72.48105,42.1545],[-72.48071,42.15436],[-72.48033,42.15413],[-72.47972,42.15368],[-72.47943,42.15349],[-72.47881,42.1532],[-72.47855,42.15351],[-72.47827,42.15342],[-72.47697,42.1534],[-72.47594,42.15375],[-72.47543,42.15386],[-72.47495,42.15386],[-72.47385,42.15375],[-72.47226,42.15343],[-72.46986,42.15276],[-72.46916,42.15268],[-72.46544,42.15268],[-72.46481,42.15276],[-72.464,42.15291],[-72.4635,42.15307],[-72.46182,42.15371],[-72.45972,42.15436],[-72.45954,42.1544],[-72.45821,42.1547],[-72.45743,42.15482],[-72.45558,42.155],[-72.45432,42.15508],[-72.45316,42.15499],[-72.45251,42.15476],[-72.45132,42.15412],[-72.45073,42.15383],[-72.45042,42.15349],[-72.4501,42.15346],[-72.44968,42.15336],[-72.44939,42.15331],[-72.44901,42.15328],[-72.44695,42.1534],[-72.44601,42.15352],[-72.44527,42.15372],[-72.44443,42.15404],[-72.44247,42.15517],[-72.44188,42.15546],[-72.44122,42.15571],[-72.44046,42.15584],[-72.43704,42.15635],[-72.43625,42.15642],[-72.43576,42.15642],[-72.43497,42.15633],[-72.43428,42.15618],[-72.4328,42.15566],[-72.43205,42.15543],[-72.43155,42.15531],[-72.43135,42.1556],[-72.43118,42.15528],[-72.43057,42.15537],[-72.43037,42.15566],[-72.43004,42.15555],[-72.42952,42.15583],[-72.42905,42.15613],[-72.42853,42.15638],[-72.42734,42.15656],[-72.42561,42.15664],[-72.42346,42.15695],[-72.42249,42.15711],[-72.4222,42.15714],[-72.4211,42.15723],[-72.42041,42.15722],[-72.41988,42.15713],[-72.41939,42.157],[-72.41899,42.15677],[-72.41862,42.1565],[-72.41832,42.15593],[-72.41812,42.15543],[-72.41785,42.15508],[-72.41766,42.15497],[-72.41704,42.15476],[-72.41667,42.15459],[-72.41614,42.15442],[-72.41489,42.15377],[-72.41383,42.15328],[-72.41324,42.1531],[-72.41317,42.15309],[-72.41277,42.15304],[-72.41193,42.15308],[-72.41042,42.15345],[-72.40977,42.15366],[-72.40935,42.15389],[-72.40913,42.15415],[-72.40904,42.15462],[-72.40909,42.15546],[-72.40941,42.15693],[-72.40952,42.15726],[-72.40955,42.15737],[-72.40987,42.15859],[-72.41037,42.16004],[-72.41052,42.16083],[-72.41054,42.16114],[-72.4104,42.16155],[-72.41016,42.16205],[-72.41008,42.1624],[-72.41011,42.16282],[-72.41078,42.16471],[-72.41094,42.16512],[-72.41158,42.16678],[-72.41171,42.16723],[-72.41098,42.16854],[-72.41087,42.16895],[-72.41087,42.17063],[-72.41081,42.17095],[-72.41068,42.17142],[-72.41022,42.1727],[-72.40997,42.17351],[-72.41002,42.17379],[-72.41019,42.17403],[-72.41045,42.1742],[-72.4118,42.17484],[-72.41193,42.17493],[-72.41203,42.17543],[-72.4117,42.1762],[-72.41104,42.17664],[-72.41055,42.17687],[-72.41017,42.1771],[-72.40947,42.17763],[-72.40929,42.17774],[-72.40919,42.17777],[-72.4091,42.17779],[-72.40874,42.17798],[-72.40831,42.17811],[-72.40851,42.1785],[-72.40814,42.17872],[-72.40784,42.17893],[-72.40742,42.17931],[-72.40691,42.17989],[-72.40613,42.18096],[-72.40536,42.18131],[-72.40525,42.18134],[-72.40495,42.1814],[-72.40479,42.1814],[-72.40404,42.18146],[-72.40382,42.18146],[-72.40384,42.18151],[-72.40401,42.18168],[-72.40399,42.18172],[-72.40334,42.18197],[-72.40311,42.18204],[-72.40305,42.18204],[-72.40208,42.18183],[-72.40115,42.18207],[-72.401,42.18215],[-72.40076,42.18239],[-72.40057,42.18267],[-72.40047,42.18274],[-72.40027,42.18282],[-72.40015,42.18297],[-72.40002,42.18288],[-72.39973,42.18291],[-72.39877,42.18291],[-72.39813,42.18296],[-72.39774,42.18303],[-72.39737,42.18317],[-72.39711,42.18334],[-72.3969,42.18352],[-72.39653,42.1841],[-72.39601,42.18462],[-72.39531,42.18512],[-72.39523,42.18473],[-72.39507,42.18398],[-72.39503,42.1838],[-72.39436,42.18075],[-72.39411,42.17942],[-72.39307,42.1731],[-72.39297,42.17218],[-72.39209,42.16734],[-72.39185,42.16598],[-72.39118,42.16512],[-72.39051,42.16426],[-72.38999,42.16476],[-72.38945,42.16527],[-72.38941,42.16532],[-72.3894,42.16533],[-72.38932,42.16541],[-72.38925,42.1655],[-72.38919,42.16559],[-72.38877,42.16615],[-72.38784,42.16655],[-72.38766,42.16653],[-72.38762,42.16653],[-72.38754,42.16651],[-72.38753,42.16653],[-72.38751,42.16657],[-72.3875,42.1666],[-72.38745,42.16672],[-72.3874,42.16683],[-72.38703,42.16662],[-72.38701,42.16646],[-72.38702,42.16638],[-72.38683,42.16633],[-72.38672,42.16629],[-72.38664,42.16627],[-72.38619,42.16609],[-72.38562,42.16587],[-72.38546,42.16579],[-72.38507,42.16556],[-72.38442,42.16516],[-72.38429,42.16506],[-72.38347,42.16381],[-72.38324,42.16339],[-72.38298,42.16293],[-72.38296,42.16288],[-72.38272,42.16239],[-72.3825,42.16191],[-72.38249,42.1619],[-72.38235,42.16163],[-72.38222,42.16136],[-72.38222,42.16135],[-72.38221,42.16133],[-72.38202,42.16094],[-72.38184,42.16056],[-72.38202,42.16044],[-72.38222,42.16031],[-72.38229,42.16026],[-72.38322,42.15968],[-72.3833,42.15963],[-72.38363,42.15946],[-72.38389,42.15933],[-72.38395,42.1593],[-72.38429,42.15916],[-72.38469,42.15898],[-72.38478,42.15895],[-72.38517,42.15882],[-72.38568,42.15864],[-72.38583,42.15861],[-72.38676,42.15845],[-72.38727,42.15837],[-72.38761,42.15831],[-72.38853,42.15644],[-72.38945,42.15456],[-72.38694,42.15419],[-72.387,42.15404],[-72.38943,42.15438],[-72.38907,42.15244],[-72.38905,42.1523],[-72.38887,42.15131]]]}},{"type":"Feature","properties":{"POSTCODE":"01056","PC_NAME":"Ludlow","Municipality":"Ludlow","State":"MA","County":"Hampden County"},"geometry":{"type":"Polygon","coordinates":[[[-72.39546,42.18581],[-72.39531,42.18512],[-72.39601,42.18462],[-72.39653,42.1841],[-72.3969,42.18352],[-72.39711,42.18334],[-72.39737,42.18317],[-72.39774,42.18303],[-72.39813,42.18296],[-72.39877,42.18291],[-72.39973,42.18291],[-72.40002,42.18288],[-72.40015,42.18297],[-72.40027,42.18282],[-72.40047,42.18274],[-72.40057,42.18267],[-72.40076,42.18239],[-72.401,42.18215],[-72.40115,42.18207],[-72.40208,42.18183],[-72.40305,42.18204],[-72.40311,42.18204],[-72.40334,42.18197],[-72.40399,42.18172],[-72.40401,42.18168],[-72.40384,42.18151],[-72.40382,42.18146],[-72.40404,42.18146],[-72.40479,42.1814],[-72.40495,42.1814],[-72.40525,42.18134],[-72.40536,42.18131],[-72.40613,42.18096],[-72.40691,42.17989],[-72.40742,42.17931],[-72.40784,42.17893],[-72.40814,42.17872],[-72.40851,42.1785],[-72.40831,42.17811],[-72.40874,42.17798],[-72.4091,42.17779],[-72.40919,42.17777],[-72.40929,42.17774],[-72.40947,42.17763],[-72.41017,42.1771],[-72.41055,42.17687],[-72.41104,42.17664],[-72.4117,42.1762],[-72.41203,42.17543],[-72.41193,42.17493],[-72.4118,42.17484],[-72.41045,42.1742],[-72.41019,42.17403],[-72.41002,42.17379],[-72.40997,42.17351],[-72.41022,42.1727],[-72.41068,42.17142],[-72.41081,42.17095],[-72.41087,42.17063],[-72.41087,42.16895],[-72.41098,42.16854],[-72.41171,42.16723],[-72.41158,42.16678],[-72.41094,42.16512],[-72.41078,42.16471],[-72.41011,42.16282],[-72.41008,42.1624],[-72.41016,42.16205],[-72.4104,42.16155],[-72.41054,42.16114],[-72.41052,42.16083],[-72.41037,42.16004],[-72.40987,42.15859],[-72.40955,42.15737],[-72.40952,42.15726],[-72.40941,42.15693],[-72.40909,42.15546],[-72.40904,42.15462],[-72.40913,42.15415],[-72.40935,42.15389],[-72.40977,42.15366],[-72.41042,42.15345],[-72.41193,42.15308],[-72.41277,42.15304],[-72.41317,42.15309],[-72.41324,42.1531],[-72.41383,42.15328],[-72.41489,42.15377],[-72.41614,42.15442],[-72.41667,42.15459],[-72.41704,42.15476],[-72.41766,42.15497],[-72.41785,42.15508],[-72.41812,42.15543],[-72.41832,42.15593],[-72.41862,42.1565],[-72.41899,42.15677],[-72.41939,42.157],[-72.41988,42.15713],[-72.42041,42.15722],[-72.4211,42.15723],[-72.4222,42.15714],[-72.42249,42.15711],[-72.42346,42.15695],[-72.42561,42.15664],[-72.42734,42.15656],[-72.42853,42.15638],[-72.42905,42.15613],[-72.42952,42.15583],[-72.43004,42.15555],[-72.43037,42.15566],[-72.43057,42.15537],[-72.43118,42.15528],[-72.43135,42.1556],[-72.43155,42.15531],[-72.43205,42.15543],[-72.4328,42.15566],[-72.43428,42.15618],[-72.43497,42.15633],[-72.43576,42.15642],[-72.43625,42.15642],[-72.43704,42.15635],[-72.44046,42.15584],[-72.44122,42.15571],[-72.44188,42.15546],[-72.44247,42.15517],[-72.44443,42.15404],[-72.44527,42.15372],[-72.44601,42.15352],[-72.44695,42.1534],[-72.44901,42.15328],[-72.44939,42.15331],[-72.44968,42.15336],[-72.4501,42.15346],[-72.45042,42.15349],[-72.45073,42.15383],[-72.45132,42.15412],[-72.45251,42.15476],[-72.45316,42.15499],[-72.45432,42.15508],[-72.45558,42.155],[-72.45743,42.15482],[-72.45821,42.1547],[-72.45954,42.1544],[-72.45972,42.15436],[-72.46182,42.15371],[-72.4635,42.15307],[-72.464,42.15291],[-72.46481,42.15276],[-72.46544,42.15268],[-72.46916,42.15268],[-72.46986,42.15276],[-72.47226,42.15343],[-72.47385,42.15375],[-72.47495,42.15386],[-72.47543,42.15386],[-72.47594,42.15375],[-72.47697,42.1534],[-72.47827,42.15342],[-72.47855,42.15351],[-72.47881,42.1532],[-72.47943,42.15349],[-72.47972,42.15368],[-72.48033,42.15413],[-72.48071,42.15436],[-72.48105,42.1545],[-72.48184,42.15478],[-72.48325,42.15551],[-72.48433,42.15613],[-72.48475,42.15645],[-72.485,42.15656],[-72.48543,42.15668],[-72.48613,42.1568],[-72.48685,42.15706],[-72.48784,42.1576],[-72.48801,42.15789],[-72.48802,42.15812],[-72.48799,42.1583],[-72.48871,42.15905],[-72.48914,42.15899],[-72.48946,42.15903],[-72.48972,42.15923],[-72.48976,42.15944],[-72.4897,42.15966],[-72.48958,42.1599],[-72.4894,42.16019],[-72.48923,42.16057],[-72.48914,42.16091],[-72.48914,42.1612],[-72.48935,42.16152],[-72.48961,42.16163],[-72.4901,42.16157],[-72.49193,42.16118],[-72.49373,42.16112],[-72.49561,42.16112],[-72.49718,42.16123],[-72.49944,42.16155],[-72.50488,42.16213],[-72.50578,42.16213],[-72.50591,42.16209],[-72.50591,42.16229],[-72.50609,42.16228],[-72.50694,42.16187],[-72.50784,42.16149],[-72.50847,42.1612],[-72.50935,42.16103],[-72.51061,42.16082],[-72.51055,42.16053],[-72.511,42.16048],[-72.51128,42.16048],[-72.51305,42.16076],[-72.51392,42.16083],[-72.51387,42.1605],[-72.51471,42.16041],[-72.51601,42.16077],[-72.51608,42.16109],[-72.51622,42.16239],[-72.51654,42.16333],[-72.51662,42.16364],[-72.51676,42.16436],[-72.51707,42.16585],[-72.5176,42.16848],[-72.51874,42.17383],[-72.51261,42.17413],[-72.51299,42.17494],[-72.51377,42.17575],[-72.51377,42.17577],[-72.51376,42.17579],[-72.51382,42.17588],[-72.51395,42.17619],[-72.51396,42.17624],[-72.51399,42.17638],[-72.5143,42.17763],[-72.51554,42.18049],[-72.51593,42.18284],[-72.51683,42.1868],[-72.51816,42.19257],[-72.51963,42.19901],[-72.52121,42.20588],[-72.52134,42.20644],[-72.5222,42.2102],[-72.52277,42.21262],[-72.52303,42.21375],[-72.52303,42.21376],[-72.52324,42.21465],[-72.52417,42.21876],[-72.51603,42.21964],[-72.51439,42.21982],[-72.51408,42.21985],[-72.51028,42.22028],[-72.50725,42.2206],[-72.50254,42.22113],[-72.49806,42.22159],[-72.49146,42.22228],[-72.47837,42.22373],[-72.46164,42.22564],[-72.4471,42.22724],[-72.44688,42.22727],[-72.44455,42.22753],[-72.44312,42.22768],[-72.42223,42.2299],[-72.40392,42.23188],[-72.4029,42.22629],[-72.40016,42.21174],[-72.39995,42.20998],[-72.39904,42.20505],[-72.39572,42.18696],[-72.39546,42.18581]]]}},{"type":"Feature","properties":{"POSTCODE":"01040","PC_NAME":"Holyoke","Municipality":"Holyoke","State":"MA","County":"Hampden County"},"geometry":{"type":"Polygon","coordinates":[[[-72.61002,42.28518],[-72.60606,42.2846],[-72.60545,42.28451],[-72.60513,42.2844],[-72.604,42.2837],[-72.60214,42.28208],[-72.60132,42.28124],[-72.60127,42.28114],[-72.60109,42.28074],[-72.60088,42.2801],[-72.60086,42.2791],[-72.60089,42.27868],[-72.60088,42.27862],[-72.60086,42.27831],[-72.60066,42.27784],[-72.60004,42.27685],[-72.59987,42.27645],[-72.59953,42.27522],[-72.59883,42.27022],[-72.59885,42.26961],[-72.59895,42.26856],[-72.59908,42.26783],[-72.59982,42.26612],[-72.60002,42.26571],[-72.60056,42.2652],[-72.60075,42.26502],[-72.60333,42.26356],[-72.60508,42.2624],[-72.6052,42.26233],[-72.60606,42.26176],[-72.60719,42.26101],[-72.60764,42.26067],[-72.60847,42.25995],[-72.60977,42.2586],[-72.61058,42.25789],[-72.61148,42.25699],[-72.61203,42.25619],[-72.61243,42.25553],[-72.6129,42.25495],[-72.61372,42.25405],[-72.61446,42.25295],[-72.61508,42.25196],[-72.61574,42.25115],[-72.61636,42.25031],[-72.6165,42.25007],[-72.61717,42.24926],[-72.61781,42.24848],[-72.61842,42.24769],[-72.6192,42.24619],[-72.6201,42.24447],[-72.62145,42.24066],[-72.62193,42.23895],[-72.62264,42.23711],[-72.62303,42.23598],[-72.62329,42.23529],[-72.62392,42.23371],[-72.62365,42.23332],[-72.62242,42.23148],[-72.62215,42.23106],[-72.62179,42.23053],[-72.62141,42.22998],[-72.621,42.22937],[-72.61622,42.22675],[-72.61356,42.22534],[-72.61293,42.22477],[-72.61241,42.22405],[-72.61197,42.22329],[-72.6118,42.22284],[-72.61154,42.22193],[-72.61128,42.22089],[-72.6109,42.21967],[-72.61064,42.21898],[-72.61038,42.21847],[-72.61006,42.21805],[-72.60945,42.21743],[-72.60939,42.21738],[-72.60869,42.2168],[-72.608,42.21626],[-72.60695,42.21552],[-72.60574,42.21494],[-72.60233,42.21338],[-72.6008,42.21287],[-72.59671,42.21197],[-72.59614,42.21186],[-72.5934,42.21157],[-72.59233,42.2105],[-72.59207,42.21013],[-72.59137,42.20878],[-72.59056,42.20649],[-72.59039,42.20563],[-72.59015,42.20412],[-72.59012,42.20345],[-72.59024,42.20295],[-72.59131,42.20157],[-72.59285,42.20034],[-72.59404,42.1993],[-72.59625,42.19791],[-72.59688,42.19755],[-72.59829,42.19674],[-72.59865,42.19653],[-72.60068,42.19536],[-72.60129,42.195],[-72.60254,42.19413],[-72.60501,42.19224],[-72.60591,42.19161],[-72.60786,42.19054],[-72.60969,42.18988],[-72.6099,42.18981],[-72.61409,42.18824],[-72.61751,42.187],[-72.6217,42.18574],[-72.62305,42.18514],[-72.62367,42.1847],[-72.62453,42.18363],[-72.62512,42.18293],[-72.62584,42.18175],[-72.62602,42.18134],[-72.62648,42.18026],[-72.62715,42.17861],[-72.62759,42.17718],[-72.62796,42.17582],[-72.62834,42.1738],[-72.62846,42.17252],[-72.62851,42.17162],[-72.6286,42.17067],[-72.62868,42.16755],[-72.62863,42.16636],[-72.62859,42.16576],[-72.62838,42.16512],[-72.62837,42.16509],[-72.62817,42.16419],[-72.62758,42.16205],[-72.62904,42.16207],[-72.63212,42.16212],[-72.63308,42.16214],[-72.63339,42.16213],[-72.6384,42.16221],[-72.63935,42.16225],[-72.64529,42.1623],[-72.64607,42.1623],[-72.64651,42.16234],[-72.64971,42.16241],[-72.653,42.16246],[-72.65882,42.16254],[-72.6598,42.16255],[-72.67116,42.16271],[-72.67119,42.16271],[-72.67239,42.16274],[-72.67281,42.16275],[-72.685,42.16292],[-72.68639,42.17767],[-72.68638,42.17841],[-72.68692,42.18332],[-72.6869,42.18365],[-72.68688,42.18407],[-72.68685,42.18469],[-72.68683,42.18505],[-72.68682,42.18538],[-72.6868,42.18563],[-72.68676,42.18609],[-72.68671,42.18643],[-72.68663,42.18684],[-72.68644,42.18779],[-72.68631,42.18842],[-72.68626,42.1887],[-72.68624,42.18893],[-72.68629,42.18923],[-72.6863,42.18932],[-72.68645,42.1902],[-72.68655,42.19074],[-72.68679,42.19198],[-72.68687,42.1924],[-72.68701,42.1932],[-72.68711,42.19379],[-72.68731,42.19491],[-72.68753,42.19617],[-72.68765,42.19693],[-72.68775,42.1975],[-72.68777,42.19765],[-72.68785,42.19816],[-72.68799,42.19896],[-72.68802,42.19913],[-72.68815,42.19977],[-72.68826,42.20032],[-72.68831,42.20062],[-72.68842,42.20121],[-72.68853,42.20181],[-72.68855,42.20194],[-72.68864,42.20241],[-72.68868,42.20265],[-72.68871,42.20282],[-72.68881,42.20337],[-72.68882,42.20343],[-72.68889,42.20379],[-72.68901,42.20445],[-72.68905,42.20463],[-72.68911,42.20496],[-72.68917,42.20526],[-72.68936,42.20635],[-72.68946,42.20689],[-72.68955,42.20737],[-72.6897,42.20823],[-72.68982,42.20896],[-72.68994,42.20967],[-72.68998,42.20994],[-72.69015,42.21107],[-72.6903,42.21206],[-72.69037,42.21254],[-72.69046,42.21312],[-72.6886,42.21341],[-72.685,42.21399],[-72.68047,42.21471],[-72.67313,42.21595],[-72.67007,42.21647],[-72.66959,42.21814],[-72.66777,42.22538],[-72.66669,42.22548],[-72.65663,42.22767],[-72.6544,42.23229],[-72.65159,42.2372],[-72.64319,42.25536],[-72.63884,42.26484],[-72.63735,42.26762],[-72.6371,42.26814],[-72.63596,42.27112],[-72.63451,42.27408],[-72.62453,42.27982],[-72.62168,42.28144],[-72.61993,42.28243],[-72.61634,42.28447],[-72.61605,42.28463],[-72.61493,42.28527],[-72.6147,42.28541],[-72.61441,42.28557],[-72.61324,42.28623],[-72.61264,42.28583],[-72.61168,42.28545],[-72.61002,42.28518]]]}},{"type":"Feature","properties":{"POSTCODE":"01013","PC_NAME":"Chicopee","Municipality":"Chicopee","State":"MA","County":"Hampden County"},"geometry":{"type":"Polygon","coordinates":[[[-72.58316,42.14066],[-72.58312,42.13978],[-72.5844,42.13924],[-72.59161,42.13621],[-72.59289,42.13566],[-72.59335,42.13547],[-72.59539,42.13465],[-72.59866,42.13326],[-72.60021,42.13258],[-72.60112,42.13221],[-72.60585,42.13021],[-72.608,42.12931],[-72.60825,42.12921],[-72.60849,42.12908],[-72.60865,42.12902],[-72.61159,42.12779],[-72.6132,42.12707],[-72.61795,42.12508],[-72.61889,42.12473],[-72.62135,42.12386],[-72.61685,42.13068],[-72.61586,42.13297],[-72.61534,42.13468],[-72.61523,42.13557],[-72.61521,42.13572],[-72.61511,42.13639],[-72.61522,42.13736],[-72.61552,42.13852],[-72.61592,42.13971],[-72.61646,42.14086],[-72.61801,42.14325],[-72.61879,42.14422],[-72.61949,42.14484],[-72.62453,42.1485],[-72.62483,42.14864],[-72.62526,42.14895],[-72.62601,42.14963],[-72.62645,42.15023],[-72.62724,42.15142],[-72.62747,42.15203],[-72.62767,42.15305],[-72.62778,42.15393],[-72.62779,42.15404],[-72.62793,42.15508],[-72.62791,42.15593],[-72.62766,42.15865],[-72.62747,42.15983],[-72.62741,42.16077],[-72.62744,42.16149],[-72.62758,42.16205],[-72.62817,42.16419],[-72.62837,42.16509],[-72.62838,42.16512],[-72.62859,42.16576],[-72.62863,42.16636],[-72.62868,42.16755],[-72.6286,42.17067],[-72.62851,42.17162],[-72.62846,42.17252],[-72.62834,42.1738],[-72.62796,42.17582],[-72.62759,42.17718],[-72.62715,42.17861],[-72.62648,42.18026],[-72.62602,42.18134],[-72.62584,42.18175],[-72.62512,42.18293],[-72.62453,42.18363],[-72.62367,42.1847],[-72.62305,42.18514],[-72.6217,42.18574],[-72.61751,42.187],[-72.61409,42.18824],[-72.6099,42.18981],[-72.60969,42.18988],[-72.60786,42.19054],[-72.60591,42.19161],[-72.60501,42.19224],[-72.60254,42.19413],[-72.60129,42.195],[-72.60068,42.19536],[-72.6002,42.19454],[-72.59998,42.19405],[-72.59976,42.19345],[-72.5997,42.19309],[-72.59968,42.19273],[-72.59971,42.1923],[-72.59944,42.19232],[-72.59921,42.19234],[-72.5988,42.19237],[-72.59845,42.19271],[-72.59821,42.19293],[-72.59741,42.19366],[-72.5969,42.19413],[-72.59683,42.19418],[-72.59659,42.19438],[-72.5962,42.19467],[-72.59588,42.19486],[-72.59545,42.19506],[-72.59443,42.19547],[-72.59399,42.19564],[-72.59348,42.19584],[-72.59312,42.19602],[-72.5925,42.19628],[-72.59202,42.19648],[-72.59152,42.19673],[-72.5906,42.19731],[-72.58974,42.19783],[-72.58931,42.19807],[-72.58892,42.19827],[-72.58873,42.19794],[-72.58827,42.19702],[-72.58825,42.19695],[-72.58825,42.19681],[-72.58839,42.19588],[-72.58838,42.19569],[-72.58822,42.19509],[-72.588,42.19408],[-72.58782,42.19338],[-72.5875,42.19216],[-72.58737,42.19163],[-72.58738,42.19163],[-72.58748,42.19164],[-72.58762,42.19164],[-72.58773,42.19165],[-72.58814,42.19171],[-72.58846,42.19176],[-72.58855,42.19178],[-72.58871,42.19182],[-72.58895,42.19187],[-72.58897,42.19188],[-72.58954,42.1919],[-72.58965,42.19186],[-72.59007,42.19194],[-72.59063,42.19204],[-72.59076,42.19207],[-72.59077,42.19208],[-72.59079,42.19208],[-72.59092,42.19213],[-72.59123,42.1923],[-72.59129,42.19235],[-72.59157,42.19258],[-72.59245,42.19278],[-72.59303,42.19264],[-72.59311,42.19261],[-72.59326,42.19248],[-72.59341,42.19235],[-72.5936,42.19227],[-72.5938,42.19219],[-72.59386,42.19217],[-72.59419,42.19209],[-72.5946,42.19123],[-72.59431,42.19106],[-72.59402,42.19078],[-72.59388,42.1906],[-72.59379,42.19046],[-72.59371,42.19028],[-72.59364,42.18998],[-72.59365,42.18987],[-72.59368,42.18976],[-72.59618,42.19058],[-72.59628,42.19047],[-72.59652,42.19021],[-72.59665,42.19006],[-72.59648,42.18996],[-72.5963,42.18981],[-72.59567,42.18928],[-72.59532,42.18841],[-72.59515,42.18805],[-72.5951,42.18794],[-72.59499,42.18769],[-72.59497,42.18768],[-72.5949,42.18765],[-72.5948,42.1876],[-72.59442,42.18746],[-72.59408,42.18734],[-72.59397,42.18728],[-72.59385,42.18723],[-72.59352,42.18737],[-72.59319,42.18752],[-72.59304,42.18759],[-72.5927,42.18767],[-72.59197,42.18775],[-72.59184,42.18775],[-72.59161,42.18774],[-72.59145,42.18774],[-72.59141,42.18774],[-72.59135,42.18774],[-72.59127,42.18773],[-72.59125,42.18772],[-72.59117,42.18772],[-72.59107,42.18771],[-72.59103,42.1877],[-72.59078,42.18769],[-72.59003,42.18764],[-72.58925,42.18717],[-72.58901,42.18678],[-72.58872,42.18672],[-72.58842,42.18667],[-72.58838,42.18666],[-72.58808,42.18662],[-72.58778,42.18658],[-72.58765,42.18656],[-72.58744,42.18653],[-72.58734,42.18652],[-72.58714,42.1865],[-72.58692,42.18646],[-72.58684,42.18644],[-72.58671,42.18641],[-72.58661,42.18637],[-72.58632,42.18627],[-72.5861,42.18616],[-72.58595,42.18607],[-72.58559,42.18582],[-72.58537,42.18564],[-72.58504,42.18524],[-72.58492,42.18511],[-72.5848,42.18496],[-72.58469,42.18494],[-72.58438,42.18384],[-72.58407,42.18275],[-72.58388,42.18172],[-72.58554,42.18155],[-72.58561,42.18156],[-72.58607,42.18132],[-72.5862,42.18132],[-72.58632,42.18129],[-72.5863,42.18123],[-72.58628,42.18119],[-72.58624,42.18105],[-72.58623,42.18102],[-72.58619,42.18081],[-72.58618,42.18074],[-72.58615,42.18061],[-72.58626,42.17992],[-72.58629,42.17988],[-72.58638,42.17969],[-72.58646,42.17969],[-72.58655,42.17969],[-72.58689,42.17967],[-72.58722,42.17965],[-72.58731,42.17965],[-72.58741,42.17964],[-72.58746,42.17964],[-72.58788,42.17979],[-72.58814,42.17982],[-72.5884,42.17985],[-72.5887,42.17976],[-72.58899,42.17967],[-72.58914,42.17974],[-72.58928,42.17982],[-72.58956,42.17993],[-72.58988,42.18007],[-72.58997,42.1801],[-72.59051,42.18026],[-72.591,42.18041],[-72.59113,42.18058],[-72.59156,42.18116],[-72.59228,42.1804],[-72.593,42.17964],[-72.59317,42.1797],[-72.59335,42.17975],[-72.59402,42.18025],[-72.59419,42.18044],[-72.59435,42.18063],[-72.59443,42.18061],[-72.59459,42.18059],[-72.59474,42.18055],[-72.59492,42.18049],[-72.59497,42.18048],[-72.59514,42.18042],[-72.59597,42.18004],[-72.596,42.18006],[-72.59611,42.1801],[-72.59624,42.18016],[-72.59681,42.18047],[-72.59731,42.18074],[-72.59734,42.18075],[-72.59786,42.18095],[-72.59877,42.18076],[-72.59905,42.18082],[-72.59946,42.18089],[-72.59947,42.1809],[-72.59968,42.18091],[-72.59992,42.1809],[-72.60004,42.1809],[-72.60008,42.18087],[-72.60013,42.18083],[-72.60063,42.18083],[-72.6007,42.18083],[-72.60128,42.18084],[-72.60159,42.18089],[-72.6019,42.18099],[-72.60192,42.181],[-72.602,42.18102],[-72.60255,42.18116],[-72.603,42.18117],[-72.60331,42.18118],[-72.60334,42.18117],[-72.60337,42.18097],[-72.6034,42.18083],[-72.6034,42.18078],[-72.6036,42.18048],[-72.60373,42.1804],[-72.60405,42.18021],[-72.60528,42.18095],[-72.60546,42.18112],[-72.60551,42.18099],[-72.60607,42.17992],[-72.60623,42.17966],[-72.60641,42.17942],[-72.60661,42.17948],[-72.60677,42.17926],[-72.6071,42.17885],[-72.60751,42.17834],[-72.60784,42.17795],[-72.60787,42.17765],[-72.608,42.17748],[-72.60818,42.17754],[-72.60834,42.17734],[-72.60845,42.1772],[-72.60856,42.17707],[-72.60883,42.17669],[-72.60876,42.17648],[-72.60908,42.17598],[-72.6092,42.17574],[-72.60932,42.1755],[-72.60946,42.17519],[-72.60969,42.1751],[-72.60983,42.1747],[-72.60995,42.1743],[-72.60983,42.17402],[-72.60985,42.17391],[-72.60991,42.17356],[-72.60994,42.17329],[-72.60998,42.17293],[-72.61003,42.17228],[-72.6101,42.17154],[-72.61021,42.17019],[-72.61044,42.16982],[-72.61025,42.16973],[-72.61032,42.16913],[-72.61032,42.16911],[-72.61038,42.16863],[-72.61046,42.16815],[-72.61066,42.16801],[-72.61072,42.16769],[-72.61097,42.1663],[-72.61114,42.16536],[-72.6112,42.1639],[-72.61132,42.16327],[-72.61135,42.16307],[-72.6114,42.16272],[-72.6114,42.16163],[-72.61134,42.1612],[-72.61126,42.16088],[-72.61108,42.16034],[-72.6112,42.16017],[-72.61098,42.1601],[-72.61058,42.15921],[-72.61017,42.15793],[-72.60992,42.15784],[-72.60961,42.15773],[-72.60947,42.15767],[-72.60913,42.15749],[-72.6088,42.15731],[-72.60868,42.15726],[-72.60836,42.15714],[-72.6081,42.15704],[-72.60734,42.15821],[-72.60692,42.15854],[-72.60669,42.15864],[-72.60644,42.15875],[-72.60622,42.15885],[-72.60531,42.15972],[-72.60529,42.15984],[-72.60524,42.16024],[-72.60523,42.16035],[-72.60479,42.1611],[-72.6046,42.16123],[-72.60433,42.16143],[-72.60418,42.16154],[-72.6037,42.162],[-72.60293,42.16258],[-72.60219,42.1631],[-72.60205,42.16313],[-72.60202,42.16313],[-72.60198,42.16315],[-72.60195,42.16316],[-72.60192,42.16318],[-72.6019,42.16318],[-72.6018,42.16325],[-72.60106,42.16337],[-72.60102,42.16336],[-72.6008,42.16334],[-72.60072,42.16334],[-72.6007,42.16341],[-72.60064,42.16366],[-72.60041,42.16411],[-72.60028,42.16426],[-72.60019,42.16436],[-72.60015,42.16442],[-72.59947,42.16481],[-72.59931,42.16483],[-72.59905,42.16489],[-72.5985,42.16486],[-72.59845,42.16483],[-72.59837,42.16491],[-72.59809,42.16518],[-72.59752,42.16544],[-72.59745,42.16493],[-72.59738,42.16442],[-72.5965,42.16529],[-72.59632,42.16548],[-72.59488,42.1655],[-72.59357,42.16472],[-72.59213,42.16387],[-72.59213,42.16385],[-72.59212,42.16382],[-72.59211,42.16378],[-72.59209,42.16373],[-72.59199,42.16351],[-72.59193,42.16336],[-72.59182,42.16311],[-72.5917,42.16283],[-72.59155,42.16258],[-72.59139,42.16239],[-72.59132,42.16232],[-72.59132,42.16231],[-72.59117,42.16214],[-72.59102,42.16197],[-72.59062,42.16258],[-72.59049,42.16239],[-72.59022,42.162],[-72.58992,42.16158],[-72.58937,42.16078],[-72.58903,42.1603],[-72.5888,42.15997],[-72.58891,42.15981],[-72.58913,42.15912],[-72.58939,42.15879],[-72.58945,42.15848],[-72.58949,42.15787],[-72.58937,42.15687],[-72.58943,42.15644],[-72.58971,42.15531],[-72.58971,42.15503],[-72.58965,42.1545],[-72.58949,42.15398],[-72.58932,42.15368],[-72.58844,42.15261],[-72.58754,42.15171],[-72.58742,42.15151],[-72.58734,42.15116],[-72.58745,42.15082],[-72.58765,42.1505],[-72.5878,42.15032],[-72.58801,42.15023],[-72.58841,42.15014],[-72.58893,42.15008],[-72.58925,42.15008],[-72.58945,42.14963],[-72.59009,42.14954],[-72.59099,42.14947],[-72.59129,42.14942],[-72.59163,42.14927],[-72.59156,42.14872],[-72.59155,42.14861],[-72.59142,42.1486],[-72.59127,42.14859],[-72.59054,42.14799],[-72.5908,42.14798],[-72.59118,42.14798],[-72.59117,42.14691],[-72.59125,42.14542],[-72.59111,42.14456],[-72.5903,42.14341],[-72.59001,42.14307],[-72.5898,42.1428],[-72.58957,42.14258],[-72.58923,42.14228],[-72.58895,42.14207],[-72.58837,42.1417],[-72.58809,42.14148],[-72.58775,42.14112],[-72.58747,42.14083],[-72.58732,42.14066],[-72.58719,42.14056],[-72.58703,42.14048],[-72.58689,42.14043],[-72.58673,42.1404],[-72.58656,42.14038],[-72.58634,42.14039],[-72.5861,42.14042],[-72.58507,42.1406],[-72.5843,42.14074],[-72.58355,42.14088],[-72.58316,42.14066]]]}},{"type":"Feature","properties":{"POSTCODE":"01028","PC_NAME":"East Longmeadow","Municipality":"East Longmeadow","State":"MA","County":"Hampden County"},"geometry":{"type":"Polygon","coordinates":[[[-72.46999,42.08478],[-72.46963,42.08303],[-72.46931,42.08179],[-72.4679,42.07632],[-72.46379,42.05751],[-72.46146,42.04751],[-72.45998,42.04165],[-72.45871,42.03661],[-72.45871,42.03659],[-72.45839,42.03418],[-72.45997,42.03422],[-72.46957,42.03419],[-72.48035,42.03415],[-72.4847,42.03422],[-72.49247,42.03433],[-72.49692,42.03433],[-72.50925,42.03434],[-72.51715,42.03439],[-72.52459,42.03445],[-72.53162,42.03451],[-72.53253,42.03942],[-72.53388,42.04769],[-72.5343,42.0503],[-72.53439,42.05085],[-72.53474,42.05296],[-72.53537,42.05682],[-72.53549,42.05694],[-72.53571,42.05719],[-72.53597,42.05749],[-72.53588,42.05754],[-72.53581,42.05759],[-72.53573,42.05766],[-72.53559,42.05781],[-72.53662,42.0637],[-72.53673,42.06426],[-72.5372,42.06673],[-72.53707,42.0668],[-72.53675,42.06698],[-72.53674,42.06699],[-72.53641,42.0673],[-72.5367,42.0679],[-72.53684,42.06815],[-72.53678,42.06831],[-72.5367,42.06851],[-72.53668,42.06857],[-72.53658,42.06885],[-72.53651,42.06907],[-72.53649,42.06913],[-72.53645,42.0693],[-72.53639,42.06955],[-72.53635,42.06967],[-72.53608,42.07014],[-72.53607,42.07015],[-72.5359,42.07034],[-72.53581,42.07043],[-72.53579,42.07046],[-72.53575,42.07051],[-72.53573,42.07054],[-72.53568,42.0706],[-72.5359,42.07081],[-72.536,42.07091],[-72.53633,42.07123],[-72.53648,42.07146],[-72.53645,42.07227],[-72.53587,42.07264],[-72.53574,42.07272],[-72.53577,42.07285],[-72.53618,42.0728],[-72.53652,42.07277],[-72.53668,42.07275],[-72.53685,42.07273],[-72.53694,42.07272],[-72.53697,42.07282],[-72.53829,42.07328],[-72.53841,42.07396],[-72.53611,42.07426],[-72.53616,42.07472],[-72.53608,42.07595],[-72.53687,42.07591],[-72.53872,42.07581],[-72.53887,42.07648],[-72.53915,42.07815],[-72.53938,42.07962],[-72.53865,42.07968],[-72.53873,42.08043],[-72.53875,42.08083],[-72.53933,42.08111],[-72.53828,42.08121],[-72.53738,42.08135],[-72.53643,42.08149],[-72.53565,42.08161],[-72.53509,42.08178],[-72.53453,42.08195],[-72.53452,42.08191],[-72.53451,42.08188],[-72.53392,42.08188],[-72.53333,42.08188],[-72.53065,42.08221],[-72.52967,42.08233],[-72.52832,42.08245],[-72.52707,42.08265],[-72.52216,42.08339],[-72.52133,42.08352],[-72.52128,42.08353],[-72.52041,42.08363],[-72.52027,42.08364],[-72.51947,42.08373],[-72.51907,42.08378],[-72.51794,42.08392],[-72.51493,42.0843],[-72.51363,42.08446],[-72.51086,42.0848],[-72.51005,42.08491],[-72.50346,42.08572],[-72.50179,42.08593],[-72.50152,42.08601],[-72.50034,42.08615],[-72.50023,42.08619],[-72.50016,42.08624],[-72.49811,42.08648],[-72.49134,42.08725],[-72.49096,42.08733],[-72.48767,42.08756],[-72.48599,42.08778],[-72.48399,42.08805],[-72.48306,42.08873],[-72.48214,42.0894],[-72.48168,42.08936],[-72.48121,42.08932],[-72.48096,42.08915],[-72.48071,42.08898],[-72.48048,42.08925],[-72.48026,42.08951],[-72.48026,42.08947],[-72.4803,42.08938],[-72.48029,42.08936],[-72.48025,42.08931],[-72.48015,42.08926],[-72.48006,42.08925],[-72.47993,42.08932],[-72.47987,42.08933],[-72.47978,42.08927],[-72.47975,42.08922],[-72.47973,42.08897],[-72.47967,42.08876],[-72.4796,42.0886],[-72.47636,42.08899],[-72.47565,42.08907],[-72.47351,42.08946],[-72.47328,42.08948],[-72.47214,42.08949],[-72.47102,42.08962],[-72.47055,42.0874],[-72.46999,42.08478]]]}},{"type":"Feature","properties":{"POSTCODE":"01089","PC_NAME":"West Springfield","Municipality":"West Springfield","State":"MA","County":"Hampden County"},"geometry":{"type":"Polygon","coordinates":[[[-72.62758,42.16205],[-72.62744,42.16149],[-72.62741,42.16077],[-72.62747,42.15983],[-72.62766,42.15865],[-72.62791,42.15593],[-72.62793,42.15508],[-72.62779,42.15404],[-72.62778,42.15393],[-72.62767,42.15305],[-72.62747,42.15203],[-72.62724,42.15142],[-72.62645,42.15023],[-72.62601,42.14963],[-72.62526,42.14895],[-72.62483,42.14864],[-72.62453,42.1485],[-72.61949,42.14484],[-72.61879,42.14422],[-72.61801,42.14325],[-72.61646,42.14086],[-72.61592,42.13971],[-72.61552,42.13852],[-72.61522,42.13736],[-72.61511,42.13639],[-72.61521,42.13572],[-72.61523,42.13557],[-72.61534,42.13468],[-72.61586,42.13297],[-72.61685,42.13068],[-72.62135,42.12386],[-72.62192,42.12205],[-72.6221,42.12107],[-72.62207,42.12026],[-72.62146,42.11812],[-72.62096,42.11655],[-72.62016,42.11532],[-72.61546,42.10985],[-72.61425,42.1087],[-72.61037,42.10622],[-72.60916,42.10555],[-72.6069,42.10456],[-72.60385,42.10338],[-72.60356,42.10328],[-72.60065,42.10224],[-72.59921,42.10158],[-72.59909,42.10152],[-72.5968,42.10039],[-72.59499,42.09911],[-72.5925,42.09723],[-72.59085,42.09545],[-72.59073,42.09532],[-72.58994,42.09453],[-72.58984,42.09443],[-72.58855,42.09313],[-72.58899,42.09276],[-72.58954,42.09252],[-72.59053,42.09226],[-72.59111,42.09224],[-72.5916,42.09232],[-72.59208,42.09246],[-72.59258,42.09267],[-72.59242,42.09222],[-72.59234,42.09195],[-72.59228,42.09167],[-72.59221,42.09127],[-72.59241,42.09126],[-72.59254,42.09129],[-72.59299,42.0914],[-72.59369,42.09136],[-72.59614,42.09124],[-72.59774,42.09161],[-72.59819,42.09171],[-72.59865,42.09034],[-72.5988,42.09038],[-72.59938,42.09035],[-72.59966,42.08964],[-72.60037,42.08913],[-72.60054,42.08848],[-72.60045,42.0878],[-72.60028,42.08716],[-72.60039,42.08639],[-72.60069,42.08611],[-72.60129,42.08605],[-72.60214,42.0862],[-72.60323,42.08664],[-72.60428,42.08727],[-72.60487,42.08759],[-72.60661,42.08812],[-72.60846,42.08849],[-72.61009,42.08872],[-72.61047,42.08867],[-72.61076,42.0886],[-72.61197,42.08825],[-72.61232,42.08811],[-72.61287,42.08782],[-72.61327,42.08774],[-72.61353,42.08774],[-72.61452,42.08762],[-72.616,42.08759],[-72.61801,42.08751],[-72.61818,42.0877],[-72.61891,42.08767],[-72.61934,42.08771],[-72.62053,42.08791],[-72.6216,42.08832],[-72.62192,42.08803],[-72.62451,42.08892],[-72.62674,42.09004],[-72.6271,42.0902],[-72.62721,42.09023],[-72.62742,42.09023],[-72.62773,42.09029],[-72.62799,42.09038],[-72.62857,42.0908],[-72.62921,42.09133],[-72.6297,42.09183],[-72.63008,42.09257],[-72.63026,42.09301],[-72.63046,42.09357],[-72.63074,42.09357],[-72.63106,42.0942],[-72.63092,42.09437],[-72.63098,42.09461],[-72.63104,42.09499],[-72.63097,42.09539],[-72.63087,42.09554],[-72.63013,42.09659],[-72.62996,42.09688],[-72.62982,42.09725],[-72.62976,42.09749],[-72.62982,42.09786],[-72.62988,42.09807],[-72.62979,42.09818],[-72.63002,42.09839],[-72.63008,42.0985],[-72.63013,42.09911],[-72.6297,42.09986],[-72.63039,42.09998],[-72.63066,42.09994],[-72.63046,42.10047],[-72.63148,42.10062],[-72.63153,42.10099],[-72.63263,42.10111],[-72.63269,42.10079],[-72.63319,42.10079],[-72.63443,42.10067],[-72.6347,42.10059],[-72.63501,42.10045],[-72.63524,42.10027],[-72.6355,42.10006],[-72.63631,42.09976],[-72.63654,42.09968],[-72.63885,42.09917],[-72.63922,42.09911],[-72.63927,42.099],[-72.64038,42.09916],[-72.64114,42.09934],[-72.64117,42.09917],[-72.64221,42.09928],[-72.64343,42.09931],[-72.64358,42.09931],[-72.64424,42.09928],[-72.64476,42.09919],[-72.64502,42.09917],[-72.64502,42.09934],[-72.6452,42.09931],[-72.64552,42.09932],[-72.64607,42.09942],[-72.64621,42.0994],[-72.64636,42.09931],[-72.64651,42.09926],[-72.64674,42.09908],[-72.64685,42.09902],[-72.64993,42.09852],[-72.65483,42.09749],[-72.65674,42.09684],[-72.65794,42.09607],[-72.65848,42.09549],[-72.65898,42.09485],[-72.66,42.09322],[-72.66023,42.09247],[-72.6592,42.09184],[-72.65971,42.09126],[-72.65981,42.09097],[-72.65982,42.09095],[-72.65999,42.09037],[-72.65998,42.09],[-72.65997,42.08987],[-72.65993,42.0893],[-72.65993,42.08876],[-72.65978,42.08827],[-72.6597,42.08806],[-72.66096,42.08736],[-72.66087,42.08695],[-72.6606,42.08634],[-72.66122,42.0859],[-72.66055,42.08611],[-72.66061,42.08585],[-72.66093,42.08533],[-72.66055,42.08536],[-72.66081,42.08472],[-72.66101,42.08443],[-72.66124,42.08425],[-72.66158,42.08406],[-72.66229,42.08483],[-72.66275,42.08484],[-72.66328,42.08494],[-72.66373,42.08507],[-72.66406,42.08524],[-72.66428,42.08539],[-72.66484,42.08597],[-72.66541,42.08668],[-72.66631,42.0875],[-72.6664,42.0877],[-72.66644,42.08794],[-72.66653,42.08928],[-72.66667,42.08993],[-72.66685,42.09038],[-72.66701,42.09057],[-72.66806,42.0916],[-72.66826,42.09144],[-72.66893,42.09217],[-72.66885,42.09244],[-72.66937,42.0931],[-72.6702,42.09376],[-72.67107,42.09415],[-72.67195,42.09459],[-72.67249,42.09501],[-72.67297,42.09554],[-72.67322,42.09595],[-72.67369,42.09665],[-72.67401,42.09696],[-72.6745,42.09728],[-72.67485,42.09769],[-72.67513,42.09807],[-72.67522,42.0983],[-72.67523,42.09847],[-72.67555,42.09902],[-72.67603,42.09949],[-72.67644,42.09986],[-72.67665,42.09994],[-72.67711,42.10001],[-72.67773,42.1003],[-72.67782,42.10027],[-72.67796,42.10022],[-72.67816,42.10021],[-72.67848,42.10027],[-72.6785,42.10027],[-72.67879,42.10038],[-72.67892,42.10041],[-72.67908,42.10036],[-72.67908,42.10027],[-72.67987,42.10027],[-72.67992,42.10038],[-72.68016,42.10039],[-72.68134,42.10065],[-72.68164,42.10076],[-72.68213,42.10123],[-72.68214,42.10137],[-72.68208,42.10178],[-72.68185,42.10245],[-72.68185,42.10262],[-72.68214,42.10387],[-72.68211,42.10483],[-72.68216,42.105],[-72.68234,42.10521],[-72.68254,42.10602],[-72.68268,42.10634],[-72.68277,42.10662],[-72.68286,42.10679],[-72.68304,42.10698],[-72.68333,42.10714],[-72.68379,42.10723],[-72.68401,42.10723],[-72.68442,42.10715],[-72.68486,42.10702],[-72.68555,42.10674],[-72.68623,42.10663],[-72.68698,42.10645],[-72.68828,42.10636],[-72.68884,42.10628],[-72.69026,42.10628],[-72.6907,42.10634],[-72.69084,42.10633],[-72.6914,42.10618],[-72.6914,42.10568],[-72.69409,42.10547],[-72.69459,42.10621],[-72.69448,42.10641],[-72.69441,42.10657],[-72.69351,42.11042],[-72.6931,42.11191],[-72.69269,42.11431],[-72.69246,42.1166],[-72.69243,42.11695],[-72.69189,42.11846],[-72.69093,42.12214],[-72.69075,42.12325],[-72.69089,42.12505],[-72.69081,42.12563],[-72.68994,42.12888],[-72.68683,42.13497],[-72.68633,42.13596],[-72.6868,42.13997],[-72.6869,42.14011],[-72.68687,42.14074],[-72.68709,42.14263],[-72.68661,42.1439],[-72.68912,42.14632],[-72.688,42.14922],[-72.68666,42.15067],[-72.68592,42.15333],[-72.68549,42.15485],[-72.685,42.16292],[-72.67281,42.16275],[-72.67239,42.16274],[-72.67119,42.16271],[-72.67116,42.16271],[-72.6598,42.16255],[-72.65882,42.16254],[-72.653,42.16246],[-72.64971,42.16241],[-72.64651,42.16234],[-72.64607,42.1623],[-72.64529,42.1623],[-72.63935,42.16225],[-72.6384,42.16221],[-72.63339,42.16213],[-72.63308,42.16214],[-72.63212,42.16212],[-72.62904,42.16207],[-72.62758,42.16205]]]}},{"type":"Feature","properties":{"POSTCODE":"01020","PC_NAME":"Chicopee","Municipality":"Chicopee","State":"MA","County":"Hampden County"},"geometry":{"type":"Polygon","coordinates":[[[-72.51816,42.19257],[-72.51683,42.1868],[-72.51593,42.18284],[-72.51554,42.18049],[-72.5143,42.17763],[-72.51399,42.17638],[-72.51396,42.17624],[-72.51395,42.17619],[-72.51382,42.17588],[-72.51376,42.17579],[-72.51377,42.17577],[-72.51377,42.17575],[-72.51299,42.17494],[-72.51261,42.17413],[-72.51874,42.17383],[-72.5176,42.16848],[-72.51707,42.16585],[-72.51676,42.16436],[-72.51662,42.16364],[-72.51654,42.16333],[-72.51622,42.16239],[-72.51608,42.16109],[-72.51601,42.16077],[-72.51686,42.16083],[-72.51828,42.16114],[-72.51903,42.16123],[-72.52023,42.16126],[-72.52138,42.16115],[-72.52237,42.161],[-72.5235,42.16076],[-72.52454,42.16036],[-72.52551,42.15989],[-72.52667,42.15928],[-72.52765,42.15874],[-72.52783,42.15848],[-72.52797,42.15861],[-72.52866,42.15839],[-72.52979,42.15807],[-72.53131,42.15784],[-72.53252,42.15761],[-72.53328,42.15754],[-72.53554,42.15738],[-72.536,42.15732],[-72.53615,42.15725],[-72.53624,42.15714],[-72.53641,42.15662],[-72.53679,42.15604],[-72.53712,42.15543],[-72.53731,42.15522],[-72.53749,42.15505],[-72.53787,42.15485],[-72.53827,42.15473],[-72.53867,42.15428],[-72.53935,42.15443],[-72.53967,42.1545],[-72.53989,42.15457],[-72.54018,42.1547],[-72.54036,42.15479],[-72.54053,42.15491],[-72.54074,42.1551],[-72.54085,42.15522],[-72.54104,42.15548],[-72.54112,42.15567],[-72.54117,42.15584],[-72.54132,42.15655],[-72.54137,42.15672],[-72.54146,42.15693],[-72.54153,42.15703],[-72.54167,42.1572],[-72.54889,42.15406],[-72.54906,42.15399],[-72.55103,42.15316],[-72.55518,42.1514],[-72.55699,42.15063],[-72.55882,42.14986],[-72.5603,42.1493],[-72.56065,42.14923],[-72.56178,42.14864],[-72.56324,42.14798],[-72.56416,42.14757],[-72.56483,42.14729],[-72.56632,42.1468],[-72.56718,42.1464],[-72.56791,42.14605],[-72.56875,42.14571],[-72.56882,42.14568],[-72.56921,42.14553],[-72.57042,42.14504],[-72.57135,42.14467],[-72.57472,42.14331],[-72.57704,42.14222],[-72.57792,42.14159],[-72.57807,42.1414],[-72.57832,42.14108],[-72.57959,42.14127],[-72.58077,42.14079],[-72.581,42.14069],[-72.58172,42.14054],[-72.58232,42.1402],[-72.58252,42.14031],[-72.58287,42.1405],[-72.58316,42.14066],[-72.58355,42.14088],[-72.5843,42.14074],[-72.58507,42.1406],[-72.5861,42.14042],[-72.58634,42.14039],[-72.58656,42.14038],[-72.58673,42.1404],[-72.58689,42.14043],[-72.58703,42.14048],[-72.58719,42.14056],[-72.58732,42.14066],[-72.58747,42.14083],[-72.58775,42.14112],[-72.58809,42.14148],[-72.58837,42.1417],[-72.58895,42.14207],[-72.58923,42.14228],[-72.58957,42.14258],[-72.5898,42.1428],[-72.59001,42.14307],[-72.5903,42.14341],[-72.59111,42.14456],[-72.59125,42.14542],[-72.59117,42.14691],[-72.59118,42.14798],[-72.5908,42.14798],[-72.59054,42.14799],[-72.59127,42.14859],[-72.59142,42.1486],[-72.59155,42.14861],[-72.59156,42.14872],[-72.59163,42.14927],[-72.59129,42.14942],[-72.59099,42.14947],[-72.59009,42.14954],[-72.58945,42.14963],[-72.58925,42.15008],[-72.58893,42.15008],[-72.58841,42.15014],[-72.58801,42.15023],[-72.5878,42.15032],[-72.58765,42.1505],[-72.58745,42.15082],[-72.58734,42.15116],[-72.58742,42.15151],[-72.58754,42.15171],[-72.58844,42.15261],[-72.58932,42.15368],[-72.58949,42.15398],[-72.58965,42.1545],[-72.58971,42.15503],[-72.58971,42.15531],[-72.58943,42.15644],[-72.58937,42.15687],[-72.58949,42.15787],[-72.58945,42.15848],[-72.58939,42.15879],[-72.58913,42.15912],[-72.58891,42.15981],[-72.5888,42.15997],[-72.58903,42.1603],[-72.58937,42.16078],[-72.58992,42.16158],[-72.59022,42.162],[-72.59049,42.16239],[-72.59062,42.16258],[-72.59102,42.16197],[-72.59117,42.16214],[-72.59132,42.16231],[-72.59132,42.16232],[-72.59139,42.16239],[-72.59155,42.16258],[-72.5917,42.16283],[-72.59182,42.16311],[-72.59193,42.16336],[-72.59199,42.16351],[-72.59209,42.16373],[-72.59211,42.16378],[-72.59212,42.16382],[-72.59213,42.16385],[-72.59213,42.16387],[-72.59357,42.16472],[-72.59488,42.1655],[-72.59632,42.16548],[-72.5965,42.16529],[-72.59738,42.16442],[-72.59745,42.16493],[-72.59752,42.16544],[-72.59809,42.16518],[-72.59837,42.16491],[-72.59845,42.16483],[-72.5985,42.16486],[-72.59905,42.16489],[-72.59931,42.16483],[-72.59947,42.16481],[-72.60015,42.16442],[-72.60019,42.16436],[-72.60028,42.16426],[-72.60041,42.16411],[-72.60064,42.16366],[-72.6007,42.16341],[-72.60072,42.16334],[-72.6008,42.16334],[-72.60102,42.16336],[-72.60106,42.16337],[-72.6018,42.16325],[-72.6019,42.16318],[-72.60192,42.16318],[-72.60195,42.16316],[-72.60198,42.16315],[-72.60202,42.16313],[-72.60205,42.16313],[-72.60219,42.1631],[-72.60293,42.16258],[-72.6037,42.162],[-72.60418,42.16154],[-72.60433,42.16143],[-72.6046,42.16123],[-72.60479,42.1611],[-72.60523,42.16035],[-72.60524,42.16024],[-72.60529,42.15984],[-72.60531,42.15972],[-72.60622,42.15885],[-72.60644,42.15875],[-72.60669,42.15864],[-72.60692,42.15854],[-72.60734,42.15821],[-72.6081,42.15704],[-72.60836,42.15714],[-72.60868,42.15726],[-72.6088,42.15731],[-72.60913,42.15749],[-72.60947,42.15767],[-72.60961,42.15773],[-72.60992,42.15784],[-72.61017,42.15793],[-72.61058,42.15921],[-72.61098,42.1601],[-72.6112,42.16017],[-72.61108,42.16034],[-72.61126,42.16088],[-72.61134,42.1612],[-72.6114,42.16163],[-72.6114,42.16272],[-72.61135,42.16307],[-72.61132,42.16327],[-72.6112,42.1639],[-72.61114,42.16536],[-72.61097,42.1663],[-72.61072,42.16769],[-72.61066,42.16801],[-72.61046,42.16815],[-72.61038,42.16863],[-72.61032,42.16911],[-72.61032,42.16913],[-72.61025,42.16973],[-72.61044,42.16982],[-72.61021,42.17019],[-72.6101,42.17154],[-72.61003,42.17228],[-72.60998,42.17293],[-72.60994,42.17329],[-72.60991,42.17356],[-72.60985,42.17391],[-72.60983,42.17402],[-72.60995,42.1743],[-72.60983,42.1747],[-72.60969,42.1751],[-72.60946,42.17519],[-72.60932,42.1755],[-72.6092,42.17574],[-72.60908,42.17598],[-72.60876,42.17648],[-72.60883,42.17669],[-72.60856,42.17707],[-72.60845,42.1772],[-72.60834,42.17734],[-72.60818,42.17754],[-72.608,42.17748],[-72.60787,42.17765],[-72.60784,42.17795],[-72.60751,42.17834],[-72.6071,42.17885],[-72.60677,42.17926],[-72.60661,42.17948],[-72.60641,42.17942],[-72.60623,42.17966],[-72.60607,42.17992],[-72.60551,42.18099],[-72.60546,42.18112],[-72.60528,42.18095],[-72.60405,42.18021],[-72.60373,42.1804],[-72.6036,42.18048],[-72.6034,42.18078],[-72.6034,42.18083],[-72.60337,42.18097],[-72.60334,42.18117],[-72.60331,42.18118],[-72.603,42.18117],[-72.60255,42.18116],[-72.602,42.18102],[-72.60192,42.181],[-72.6019,42.18099],[-72.60159,42.18089],[-72.60128,42.18084],[-72.6007,42.18083],[-72.60063,42.18083],[-72.60013,42.18083],[-72.60008,42.18087],[-72.60004,42.1809],[-72.59992,42.1809],[-72.59968,42.18091],[-72.59947,42.1809],[-72.59946,42.18089],[-72.59905,42.18082],[-72.59877,42.18076],[-72.59786,42.18095],[-72.59734,42.18075],[-72.59731,42.18074],[-72.59681,42.18047],[-72.59624,42.18016],[-72.59611,42.1801],[-72.596,42.18006],[-72.59597,42.18004],[-72.59514,42.18042],[-72.59497,42.18048],[-72.59492,42.18049],[-72.59474,42.18055],[-72.59459,42.18059],[-72.59443,42.18061],[-72.59435,42.18063],[-72.59419,42.18044],[-72.59402,42.18025],[-72.59335,42.17975],[-72.59317,42.1797],[-72.593,42.17964],[-72.59228,42.1804],[-72.59156,42.18116],[-72.59113,42.18058],[-72.591,42.18041],[-72.59051,42.18026],[-72.58997,42.1801],[-72.58988,42.18007],[-72.58956,42.17993],[-72.58928,42.17982],[-72.58914,42.17974],[-72.58899,42.17967],[-72.5887,42.17976],[-72.5884,42.17985],[-72.58814,42.17982],[-72.58788,42.17979],[-72.58746,42.17964],[-72.58741,42.17964],[-72.58731,42.17965],[-72.58722,42.17965],[-72.58689,42.17967],[-72.58655,42.17969],[-72.58646,42.17969],[-72.58638,42.17969],[-72.58629,42.17988],[-72.58626,42.17992],[-72.58615,42.18061],[-72.58618,42.18074],[-72.58619,42.18081],[-72.58623,42.18102],[-72.58624,42.18105],[-72.58628,42.18119],[-72.5863,42.18123],[-72.58632,42.18129],[-72.5862,42.18132],[-72.58607,42.18132],[-72.58561,42.18156],[-72.58554,42.18155],[-72.58388,42.18172],[-72.58407,42.18275],[-72.58438,42.18384],[-72.58469,42.18494],[-72.5848,42.18496],[-72.58492,42.18511],[-72.58504,42.18524],[-72.58537,42.18564],[-72.58559,42.18582],[-72.58595,42.18607],[-72.5861,42.18616],[-72.58632,42.18627],[-72.58661,42.18637],[-72.58671,42.18641],[-72.58684,42.18644],[-72.58692,42.18646],[-72.58714,42.1865],[-72.58734,42.18652],[-72.58744,42.18653],[-72.58765,42.18656],[-72.58778,42.18658],[-72.58808,42.18662],[-72.58838,42.18666],[-72.58842,42.18667],[-72.58872,42.18672],[-72.58901,42.18678],[-72.58925,42.18717],[-72.59003,42.18764],[-72.59078,42.18769],[-72.59103,42.1877],[-72.59107,42.18771],[-72.59117,42.18772],[-72.59125,42.18772],[-72.59127,42.18773],[-72.59135,42.18774],[-72.59141,42.18774],[-72.59145,42.18774],[-72.59161,42.18774],[-72.59184,42.18775],[-72.59197,42.18775],[-72.5927,42.18767],[-72.59304,42.18759],[-72.59319,42.18752],[-72.59352,42.18737],[-72.59385,42.18723],[-72.59397,42.18728],[-72.59408,42.18734],[-72.59442,42.18746],[-72.5948,42.1876],[-72.5949,42.18765],[-72.59497,42.18768],[-72.59499,42.18769],[-72.5951,42.18794],[-72.59515,42.18805],[-72.59532,42.18841],[-72.59567,42.18928],[-72.5963,42.18981],[-72.59648,42.18996],[-72.59665,42.19006],[-72.59652,42.19021],[-72.59628,42.19047],[-72.59618,42.19058],[-72.59368,42.18976],[-72.59365,42.18987],[-72.59364,42.18998],[-72.59371,42.19028],[-72.59379,42.19046],[-72.59388,42.1906],[-72.59402,42.19078],[-72.59431,42.19106],[-72.5946,42.19123],[-72.59419,42.19209],[-72.59386,42.19217],[-72.5938,42.19219],[-72.5936,42.19227],[-72.59341,42.19235],[-72.59326,42.19248],[-72.59311,42.19261],[-72.59303,42.19264],[-72.59245,42.19278],[-72.59157,42.19258],[-72.59129,42.19235],[-72.59123,42.1923],[-72.59092,42.19213],[-72.59079,42.19208],[-72.59077,42.19208],[-72.59076,42.19207],[-72.59063,42.19204],[-72.59007,42.19194],[-72.58965,42.19186],[-72.58954,42.1919],[-72.58897,42.19188],[-72.58895,42.19187],[-72.58871,42.19182],[-72.58855,42.19178],[-72.58846,42.19176],[-72.58814,42.19171],[-72.58773,42.19165],[-72.58762,42.19164],[-72.58748,42.19164],[-72.58738,42.19163],[-72.58737,42.19163],[-72.5875,42.19216],[-72.58782,42.19338],[-72.588,42.19408],[-72.58822,42.19509],[-72.58838,42.19569],[-72.58839,42.19588],[-72.58825,42.19681],[-72.58825,42.19695],[-72.58827,42.19702],[-72.58873,42.19794],[-72.58892,42.19827],[-72.58931,42.19807],[-72.58974,42.19783],[-72.5906,42.19731],[-72.59152,42.19673],[-72.59202,42.19648],[-72.5925,42.19628],[-72.59312,42.19602],[-72.59348,42.19584],[-72.59399,42.19564],[-72.59443,42.19547],[-72.59545,42.19506],[-72.59588,42.19486],[-72.5962,42.19467],[-72.59659,42.19438],[-72.59683,42.19418],[-72.5969,42.19413],[-72.59741,42.19366],[-72.59821,42.19293],[-72.59845,42.19271],[-72.5988,42.19237],[-72.59921,42.19234],[-72.59944,42.19232],[-72.59971,42.1923],[-72.59968,42.19273],[-72.5997,42.19309],[-72.59976,42.19345],[-72.59998,42.19405],[-72.6002,42.19454],[-72.60068,42.19536],[-72.59865,42.19653],[-72.59829,42.19674],[-72.59688,42.19755],[-72.59625,42.19791],[-72.59404,42.1993],[-72.59285,42.20034],[-72.59131,42.20157],[-72.59024,42.20295],[-72.59012,42.20345],[-72.59015,42.20412],[-72.59039,42.20563],[-72.59056,42.20649],[-72.59137,42.20878],[-72.59207,42.21013],[-72.59233,42.2105],[-72.5934,42.21157],[-72.59203,42.21169],[-72.59088,42.21164],[-72.58723,42.21217],[-72.58559,42.21236],[-72.58312,42.21262],[-72.57969,42.21297],[-72.57713,42.21317],[-72.57457,42.21337],[-72.57298,42.21374],[-72.57227,42.21376],[-72.56642,42.21429],[-72.56553,42.21437],[-72.56459,42.21454],[-72.5638,42.21462],[-72.56297,42.21469],[-72.55854,42.21511],[-72.54625,42.21644],[-72.54187,42.21691],[-72.54773,42.21591],[-72.55228,42.21513],[-72.55358,42.21491],[-72.5548,42.21339],[-72.55575,42.2122],[-72.55602,42.21187],[-72.55603,42.2117],[-72.55604,42.21152],[-72.55604,42.21149],[-72.55606,42.211],[-72.55607,42.21045],[-72.55607,42.21036],[-72.55606,42.2102],[-72.55606,42.21011],[-72.55605,42.21006],[-72.55603,42.2099],[-72.55602,42.20977],[-72.5559,42.20932],[-72.55576,42.20879],[-72.55574,42.20864],[-72.55589,42.20858],[-72.55605,42.20852],[-72.5561,42.2085],[-72.55631,42.20843],[-72.55642,42.20839],[-72.55683,42.20826],[-72.55702,42.20817],[-72.55756,42.20786],[-72.55784,42.20744],[-72.55856,42.20615],[-72.5588,42.20607],[-72.55932,42.206],[-72.55922,42.20594],[-72.55908,42.20586],[-72.55899,42.2058],[-72.55879,42.20566],[-72.55861,42.20552],[-72.55857,42.20549],[-72.55852,42.20546],[-72.5584,42.20537],[-72.55795,42.20496],[-72.55762,42.20466],[-72.55886,42.20387],[-72.55932,42.20357],[-72.55951,42.20343],[-72.55969,42.20328],[-72.55984,42.20312],[-72.56001,42.2029],[-72.56008,42.20277],[-72.56017,42.20258],[-72.56037,42.20205],[-72.56038,42.20201],[-72.56071,42.20112],[-72.56072,42.2011],[-72.56093,42.20057],[-72.5611,42.20055],[-72.56173,42.20049],[-72.56149,42.19915],[-72.56168,42.19914],[-72.56245,42.19859],[-72.56251,42.19842],[-72.56285,42.19818],[-72.56319,42.19795],[-72.56322,42.19792],[-72.56325,42.19789],[-72.56332,42.19747],[-72.56351,42.197],[-72.56352,42.19696],[-72.56358,42.19683],[-72.56367,42.19661],[-72.56403,42.19573],[-72.56433,42.19538],[-72.56487,42.19484],[-72.56502,42.19477],[-72.56545,42.19456],[-72.56554,42.19455],[-72.56567,42.19455],[-72.566,42.1941],[-72.56603,42.19406],[-72.56605,42.19404],[-72.56611,42.19395],[-72.56645,42.19346],[-72.56668,42.19315],[-72.56688,42.19275],[-72.56689,42.19272],[-72.56694,42.19262],[-72.56695,42.19261],[-72.56695,42.1926],[-72.56697,42.19255],[-72.56701,42.19247],[-72.56704,42.1924],[-72.56707,42.19236],[-72.56708,42.19233],[-72.56712,42.19225],[-72.56721,42.19203],[-72.56729,42.19184],[-72.56731,42.1918],[-72.56723,42.19167],[-72.56715,42.19152],[-72.56713,42.19149],[-72.56711,42.19146],[-72.56708,42.19141],[-72.56706,42.19138],[-72.56707,42.19137],[-72.5671,42.19122],[-72.56707,42.191],[-72.56704,42.1909],[-72.56707,42.19082],[-72.56718,42.19057],[-72.56723,42.19046],[-72.56727,42.19039],[-72.56734,42.19028],[-72.5674,42.19019],[-72.56743,42.19014],[-72.56762,42.18957],[-72.56762,42.18953],[-72.56763,42.18946],[-72.56759,42.18908],[-72.56757,42.18902],[-72.56746,42.18878],[-72.56706,42.18762],[-72.56655,42.18527],[-72.56628,42.18393],[-72.56618,42.1831],[-72.56775,42.1824],[-72.5679,42.18234],[-72.56771,42.18218],[-72.56743,42.18205],[-72.56347,42.18067],[-72.56333,42.18061],[-72.56304,42.18048],[-72.56265,42.18029],[-72.56212,42.17998],[-72.56056,42.17907],[-72.56041,42.17824],[-72.5589,42.17693],[-72.55669,42.17684],[-72.55707,42.17623],[-72.55228,42.17342],[-72.55153,42.17298],[-72.54811,42.17313],[-72.54796,42.1733],[-72.54765,42.17348],[-72.54738,42.17368],[-72.547,42.17403],[-72.54666,42.1738],[-72.54608,42.17432],[-72.54616,42.17463],[-72.54552,42.17522],[-72.5443,42.17597],[-72.54086,42.17981],[-72.53955,42.1805],[-72.53918,42.18134],[-72.53876,42.1823],[-72.5361,42.18532],[-72.53444,42.18603],[-72.53432,42.18718],[-72.53195,42.18964],[-72.52617,42.19031],[-72.52367,42.19062],[-72.52235,42.18975],[-72.5191,42.19228],[-72.51816,42.19257]]]}},{"type":"Feature","properties":{"POSTCODE":"01001","PC_NAME":"Agawam","Municipality":"Agawam","State":"MA","County":"Hampden County"},"geometry":{"type":"Polygon","coordinates":[[[-72.59073,42.09532],[-72.58931,42.09653],[-72.58907,42.09631],[-72.58898,42.09622],[-72.58886,42.09602],[-72.58873,42.0959],[-72.58866,42.09583],[-72.58859,42.09577],[-72.58848,42.09567],[-72.5881,42.0953],[-72.58806,42.09526],[-72.58766,42.09486],[-72.58736,42.09449],[-72.58611,42.09295],[-72.58507,42.09171],[-72.58386,42.09006],[-72.58377,42.08988],[-72.58363,42.08945],[-72.58348,42.08919],[-72.58328,42.08896],[-72.58313,42.08889],[-72.58313,42.08869],[-72.58282,42.08875],[-72.58272,42.08877],[-72.58239,42.08807],[-72.58249,42.08802],[-72.5829,42.08783],[-72.58428,42.08718],[-72.58386,42.08613],[-72.58274,42.0816],[-72.58253,42.08086],[-72.58261,42.08005],[-72.5829,42.07912],[-72.58354,42.07822],[-72.58444,42.07731],[-72.58699,42.07508],[-72.58804,42.07404],[-72.58885,42.07296],[-72.58932,42.07216],[-72.59218,42.06902],[-72.59482,42.0654],[-72.59766,42.06136],[-72.60054,42.05758],[-72.60539,42.04964],[-72.60591,42.04865],[-72.60681,42.04641],[-72.60716,42.04517],[-72.60745,42.04394],[-72.60759,42.0423],[-72.60767,42.04056],[-72.608,42.03873],[-72.60803,42.03284],[-72.60788,42.03097],[-72.61105,42.03101],[-72.61165,42.03102],[-72.61555,42.0311],[-72.61692,42.03118],[-72.61832,42.03125],[-72.62453,42.03153],[-72.6328,42.03184],[-72.6344,42.03188],[-72.63701,42.03195],[-72.63841,42.032],[-72.64,42.03209],[-72.64401,42.03248],[-72.65509,42.03348],[-72.65863,42.0338],[-72.6589,42.03427],[-72.65928,42.03493],[-72.6595,42.03519],[-72.65957,42.03525],[-72.6597,42.03535],[-72.66021,42.03566],[-72.66056,42.03587],[-72.66067,42.0365],[-72.66079,42.03714],[-72.66079,42.03716],[-72.66111,42.03878],[-72.66144,42.04038],[-72.66095,42.04055],[-72.66044,42.04072],[-72.66041,42.04073],[-72.66035,42.04076],[-72.66015,42.04083],[-72.65991,42.04096],[-72.65939,42.04134],[-72.65893,42.04166],[-72.65888,42.0417],[-72.65837,42.04202],[-72.6579,42.04232],[-72.65788,42.04233],[-72.65705,42.04284],[-72.65702,42.04285],[-72.65677,42.043],[-72.65654,42.04313],[-72.65655,42.04328],[-72.65656,42.04343],[-72.65657,42.04349],[-72.65659,42.04358],[-72.6566,42.04364],[-72.65677,42.04426],[-72.65692,42.04483],[-72.65693,42.04487],[-72.65694,42.0449],[-72.65695,42.04492],[-72.65696,42.04496],[-72.65713,42.04561],[-72.65723,42.04598],[-72.65731,42.04626],[-72.65732,42.04632],[-72.65767,42.04737],[-72.65775,42.04758],[-72.65788,42.04782],[-72.65813,42.04829],[-72.6583,42.04852],[-72.65857,42.04879],[-72.6587,42.04893],[-72.65878,42.049],[-72.65941,42.04953],[-72.65975,42.04978],[-72.65987,42.04987],[-72.65996,42.04992],[-72.66005,42.04997],[-72.66011,42.04999],[-72.66029,42.05008],[-72.66042,42.05013],[-72.66055,42.05017],[-72.66086,42.05027],[-72.66122,42.05049],[-72.66123,42.0505],[-72.66147,42.05065],[-72.66171,42.05076],[-72.66183,42.05081],[-72.66191,42.05085],[-72.6621,42.05095],[-72.66225,42.05104],[-72.66188,42.05189],[-72.66152,42.05275],[-72.6632,42.05388],[-72.66337,42.054],[-72.66362,42.05422],[-72.66376,42.05437],[-72.66398,42.0547],[-72.66421,42.05514],[-72.66448,42.05558],[-72.6648,42.05601],[-72.66562,42.05697],[-72.66598,42.05742],[-72.66554,42.05758],[-72.66514,42.05773],[-72.66424,42.05812],[-72.66332,42.05856],[-72.66276,42.05885],[-72.66179,42.05945],[-72.66131,42.05978],[-72.66057,42.05902],[-72.6606,42.05887],[-72.66061,42.05855],[-72.66059,42.05838],[-72.66049,42.05797],[-72.66034,42.0576],[-72.66024,42.05743],[-72.66,42.05712],[-72.65965,42.0568],[-72.65943,42.05662],[-72.65918,42.05646],[-72.65892,42.05633],[-72.65864,42.05621],[-72.65804,42.05602],[-72.6578,42.05597],[-72.65732,42.05591],[-72.65687,42.05589],[-72.65665,42.0559],[-72.65616,42.05596],[-72.65589,42.05602],[-72.65562,42.05609],[-72.65547,42.05614],[-72.6551,42.05626],[-72.65489,42.05636],[-72.65451,42.05658],[-72.6542,42.05681],[-72.65394,42.05705],[-72.65318,42.05786],[-72.65289,42.05809],[-72.65251,42.05832],[-72.65225,42.05846],[-72.65169,42.05867],[-72.6507,42.05894],[-72.65027,42.05903],[-72.64992,42.05916],[-72.64948,42.05934],[-72.64817,42.05995],[-72.64666,42.05892],[-72.64672,42.05934],[-72.64683,42.06001],[-72.64677,42.06051],[-72.64673,42.06059],[-72.64681,42.06073],[-72.64689,42.06086],[-72.64687,42.06094],[-72.64686,42.06102],[-72.64686,42.06104],[-72.64677,42.06151],[-72.64668,42.062],[-72.64668,42.06203],[-72.64665,42.06216],[-72.6465,42.06291],[-72.64685,42.06314],[-72.64696,42.0637],[-72.647,42.06386],[-72.64703,42.06402],[-72.64714,42.06458],[-72.64726,42.06514],[-72.64727,42.06522],[-72.64733,42.06522],[-72.64776,42.06516],[-72.64811,42.06512],[-72.64816,42.06511],[-72.64835,42.06507],[-72.64869,42.06496],[-72.64981,42.06447],[-72.65013,42.06447],[-72.65051,42.06447],[-72.65073,42.06446],[-72.65104,42.0644],[-72.65129,42.06435],[-72.6514,42.06433],[-72.65163,42.06431],[-72.65182,42.06429],[-72.65224,42.06435],[-72.653,42.06428],[-72.65359,42.06422],[-72.65362,42.06491],[-72.65366,42.06559],[-72.65407,42.0656],[-72.6549,42.06664],[-72.65497,42.06794],[-72.65477,42.06803],[-72.65466,42.06809],[-72.65465,42.06809],[-72.65433,42.06819],[-72.65394,42.06831],[-72.65382,42.06836],[-72.65366,42.06843],[-72.65336,42.06851],[-72.65319,42.06856],[-72.65314,42.06857],[-72.65296,42.06862],[-72.65206,42.06888],[-72.65176,42.06899],[-72.65163,42.06905],[-72.65136,42.06913],[-72.65132,42.06914],[-72.65116,42.06919],[-72.65108,42.06922],[-72.65102,42.06924],[-72.65085,42.06929],[-72.65045,42.06939],[-72.65006,42.06952],[-72.64979,42.06958],[-72.64948,42.06965],[-72.6494,42.06968],[-72.64912,42.06976],[-72.64883,42.06985],[-72.64872,42.06988],[-72.64859,42.06991],[-72.64853,42.06991],[-72.64848,42.06992],[-72.64815,42.07001],[-72.6481,42.07002],[-72.64797,42.07006],[-72.64782,42.07009],[-72.64773,42.07011],[-72.64765,42.07012],[-72.64748,42.07014],[-72.64725,42.07018],[-72.64714,42.07022],[-72.64708,42.07024],[-72.64697,42.07027],[-72.6468,42.07031],[-72.64674,42.07032],[-72.64664,42.07034],[-72.64663,42.07034],[-72.6465,42.07035],[-72.64619,42.07044],[-72.64601,42.07052],[-72.64593,42.07055],[-72.64587,42.07066],[-72.6458,42.07076],[-72.64575,42.07129],[-72.6457,42.07182],[-72.64498,42.07197],[-72.64505,42.07224],[-72.64526,42.07303],[-72.64541,42.07305],[-72.6455,42.07316],[-72.64581,42.07431],[-72.64618,42.07572],[-72.64629,42.07612],[-72.64645,42.0767],[-72.64641,42.07801],[-72.64648,42.07878],[-72.6465,42.079],[-72.64653,42.07928],[-72.64656,42.07956],[-72.64657,42.07972],[-72.64648,42.07975],[-72.64584,42.07998],[-72.64564,42.08013],[-72.64545,42.08028],[-72.64524,42.08042],[-72.64502,42.08057],[-72.64567,42.08166],[-72.64632,42.08275],[-72.64567,42.08326],[-72.64466,42.08231],[-72.64447,42.08214],[-72.64429,42.08269],[-72.64514,42.0837],[-72.64504,42.08378],[-72.64596,42.08498],[-72.64666,42.08596],[-72.64583,42.08623],[-72.64559,42.08631],[-72.64524,42.08643],[-72.64557,42.08692],[-72.64622,42.08776],[-72.64679,42.08843],[-72.64718,42.0889],[-72.64802,42.09],[-72.64724,42.09082],[-72.64647,42.09165],[-72.64645,42.09169],[-72.64644,42.09174],[-72.64609,42.09202],[-72.64574,42.09275],[-72.64569,42.09368],[-72.64568,42.09396],[-72.64574,42.09436],[-72.64585,42.09465],[-72.64589,42.09474],[-72.6459,42.09475],[-72.64593,42.09477],[-72.64598,42.0948],[-72.64635,42.09499],[-72.64682,42.09524],[-72.64693,42.09529],[-72.64701,42.09532],[-72.64708,42.09534],[-72.64721,42.09538],[-72.64745,42.09542],[-72.64786,42.09544],[-72.64812,42.09545],[-72.64815,42.09545],[-72.64822,42.09546],[-72.64845,42.09546],[-72.64875,42.09542],[-72.6489,42.09537],[-72.64895,42.09536],[-72.64918,42.09528],[-72.6495,42.09517],[-72.64961,42.09512],[-72.64968,42.09509],[-72.65003,42.09492],[-72.65076,42.09486],[-72.65119,42.09498],[-72.65133,42.09502],[-72.65143,42.09504],[-72.6518,42.0951],[-72.65243,42.09521],[-72.65284,42.0952],[-72.65322,42.0951],[-72.65336,42.09507],[-72.65343,42.09505],[-72.65436,42.09478],[-72.6546,42.0948],[-72.65463,42.0948],[-72.65475,42.0948],[-72.65485,42.0948],[-72.65508,42.09479],[-72.65523,42.09477],[-72.65534,42.09475],[-72.65543,42.09473],[-72.65547,42.09471],[-72.65565,42.09466],[-72.65615,42.09447],[-72.65621,42.09444],[-72.65628,42.09441],[-72.65663,42.09425],[-72.65701,42.09394],[-72.65702,42.09393],[-72.65703,42.09391],[-72.65743,42.0936],[-72.65855,42.09266],[-72.65869,42.09246],[-72.6587,42.09242],[-72.65909,42.09191],[-72.6592,42.09184],[-72.66023,42.09247],[-72.66,42.09322],[-72.65898,42.09485],[-72.65848,42.09549],[-72.65794,42.09607],[-72.65674,42.09684],[-72.65483,42.09749],[-72.64993,42.09852],[-72.64685,42.09902],[-72.64674,42.09908],[-72.64651,42.09926],[-72.64636,42.09931],[-72.64621,42.0994],[-72.64607,42.09942],[-72.64552,42.09932],[-72.6452,42.09931],[-72.64502,42.09934],[-72.64502,42.09917],[-72.64476,42.09919],[-72.64424,42.09928],[-72.64358,42.09931],[-72.64343,42.09931],[-72.64221,42.09928],[-72.64117,42.09917],[-72.64114,42.09934],[-72.64038,42.09916],[-72.63927,42.099],[-72.63922,42.09911],[-72.63885,42.09917],[-72.63654,42.09968],[-72.63631,42.09976],[-72.6355,42.10006],[-72.63524,42.10027],[-72.63501,42.10045],[-72.6347,42.10059],[-72.63443,42.10067],[-72.63319,42.10079],[-72.63269,42.10079],[-72.63263,42.10111],[-72.63153,42.10099],[-72.63148,42.10062],[-72.63046,42.10047],[-72.63066,42.09994],[-72.63039,42.09998],[-72.6297,42.09986],[-72.63013,42.09911],[-72.63008,42.0985],[-72.63002,42.09839],[-72.62979,42.09818],[-72.62988,42.09807],[-72.62982,42.09786],[-72.62976,42.09749],[-72.62982,42.09725],[-72.62996,42.09688],[-72.63013,42.09659],[-72.63087,42.09554],[-72.63097,42.09539],[-72.63104,42.09499],[-72.63098,42.09461],[-72.63092,42.09437],[-72.63106,42.0942],[-72.63074,42.09357],[-72.63046,42.09357],[-72.63026,42.09301],[-72.63008,42.09257],[-72.6297,42.09183],[-72.62921,42.09133],[-72.62857,42.0908],[-72.62799,42.09038],[-72.62773,42.09029],[-72.62742,42.09023],[-72.62721,42.09023],[-72.6271,42.0902],[-72.62674,42.09004],[-72.62451,42.08892],[-72.62192,42.08803],[-72.6216,42.08832],[-72.62053,42.08791],[-72.61934,42.08771],[-72.61891,42.08767],[-72.61818,42.0877],[-72.61801,42.08751],[-72.616,42.08759],[-72.61452,42.08762],[-72.61353,42.08774],[-72.61327,42.08774],[-72.61287,42.08782],[-72.61232,42.08811],[-72.61197,42.08825],[-72.61076,42.0886],[-72.61047,42.08867],[-72.61009,42.08872],[-72.60846,42.08849],[-72.60661,42.08812],[-72.60487,42.08759],[-72.60428,42.08727],[-72.60323,42.08664],[-72.60214,42.0862],[-72.60129,42.08605],[-72.60069,42.08611],[-72.60039,42.08639],[-72.60028,42.08716],[-72.60045,42.0878],[-72.60054,42.08848],[-72.60037,42.08913],[-72.59966,42.08964],[-72.59938,42.09035],[-72.5988,42.09038],[-72.59865,42.09034],[-72.59819,42.09171],[-72.59774,42.09161],[-72.59614,42.09124],[-72.59369,42.09136],[-72.59299,42.0914],[-72.59254,42.09129],[-72.59241,42.09126],[-72.59221,42.09127],[-72.59228,42.09167],[-72.59234,42.09195],[-72.59242,42.09222],[-72.59258,42.09267],[-72.59208,42.09246],[-72.5916,42.09232],[-72.59111,42.09224],[-72.59053,42.09226],[-72.58954,42.09252],[-72.58899,42.09276],[-72.58855,42.09313],[-72.58984,42.09443],[-72.58994,42.09453],[-72.59073,42.09532]]]}},{"type":"Feature","properties":{"POSTCODE":"01030","PC_NAME":"Feeding Hills","Municipality":"Agawam","State":"MA","County":"Hampden County"},"geometry":{"type":"Polygon","coordinates":[[[-72.6592,42.09184],[-72.65909,42.09191],[-72.6587,42.09242],[-72.65869,42.09246],[-72.65855,42.09266],[-72.65743,42.0936],[-72.65703,42.09391],[-72.65702,42.09393],[-72.65701,42.09394],[-72.65663,42.09425],[-72.65628,42.09441],[-72.65621,42.09444],[-72.65615,42.09447],[-72.65565,42.09466],[-72.65547,42.09471],[-72.65543,42.09473],[-72.65534,42.09475],[-72.65523,42.09477],[-72.65508,42.09479],[-72.65485,42.0948],[-72.65475,42.0948],[-72.65463,42.0948],[-72.6546,42.0948],[-72.65436,42.09478],[-72.65343,42.09505],[-72.65336,42.09507],[-72.65322,42.0951],[-72.65284,42.0952],[-72.65243,42.09521],[-72.6518,42.0951],[-72.65143,42.09504],[-72.65133,42.09502],[-72.65119,42.09498],[-72.65076,42.09486],[-72.65003,42.09492],[-72.64968,42.09509],[-72.64961,42.09512],[-72.6495,42.09517],[-72.64918,42.09528],[-72.64895,42.09536],[-72.6489,42.09537],[-72.64875,42.09542],[-72.64845,42.09546],[-72.64822,42.09546],[-72.64815,42.09545],[-72.64812,42.09545],[-72.64786,42.09544],[-72.64745,42.09542],[-72.64721,42.09538],[-72.64708,42.09534],[-72.64701,42.09532],[-72.64693,42.09529],[-72.64682,42.09524],[-72.64635,42.09499],[-72.64598,42.0948],[-72.64593,42.09477],[-72.6459,42.09475],[-72.64589,42.09474],[-72.64585,42.09465],[-72.64574,42.09436],[-72.64568,42.09396],[-72.64569,42.09368],[-72.64574,42.09275],[-72.64609,42.09202],[-72.64644,42.09174],[-72.64645,42.09169],[-72.64647,42.09165],[-72.64724,42.09082],[-72.64802,42.09],[-72.64718,42.0889],[-72.64679,42.08843],[-72.64622,42.08776],[-72.64557,42.08692],[-72.64524,42.08643],[-72.64559,42.08631],[-72.64583,42.08623],[-72.64666,42.08596],[-72.64596,42.08498],[-72.64504,42.08378],[-72.64514,42.0837],[-72.64429,42.08269],[-72.64447,42.08214],[-72.64466,42.08231],[-72.64567,42.08326],[-72.64632,42.08275],[-72.64567,42.08166],[-72.64502,42.08057],[-72.64524,42.08042],[-72.64545,42.08028],[-72.64564,42.08013],[-72.64584,42.07998],[-72.64648,42.07975],[-72.64657,42.07972],[-72.64656,42.07956],[-72.64653,42.07928],[-72.6465,42.079],[-72.64648,42.07878],[-72.64641,42.07801],[-72.64645,42.0767],[-72.64629,42.07612],[-72.64618,42.07572],[-72.64581,42.07431],[-72.6455,42.07316],[-72.64541,42.07305],[-72.64526,42.07303],[-72.64505,42.07224],[-72.64498,42.07197],[-72.6457,42.07182],[-72.64575,42.07129],[-72.6458,42.07076],[-72.64587,42.07066],[-72.64593,42.07055],[-72.64601,42.07052],[-72.64619,42.07044],[-72.6465,42.07035],[-72.64663,42.07034],[-72.64664,42.07034],[-72.64674,42.07032],[-72.6468,42.07031],[-72.64697,42.07027],[-72.64708,42.07024],[-72.64714,42.07022],[-72.64725,42.07018],[-72.64748,42.07014],[-72.64765,42.07012],[-72.64773,42.07011],[-72.64782,42.07009],[-72.64797,42.07006],[-72.6481,42.07002],[-72.64815,42.07001],[-72.64848,42.06992],[-72.64853,42.06991],[-72.64859,42.06991],[-72.64872,42.06988],[-72.64883,42.06985],[-72.64912,42.06976],[-72.6494,42.06968],[-72.64948,42.06965],[-72.64979,42.06958],[-72.65006,42.06952],[-72.65045,42.06939],[-72.65085,42.06929],[-72.65102,42.06924],[-72.65108,42.06922],[-72.65116,42.06919],[-72.65132,42.06914],[-72.65136,42.06913],[-72.65163,42.06905],[-72.65176,42.06899],[-72.65206,42.06888],[-72.65296,42.06862],[-72.65314,42.06857],[-72.65319,42.06856],[-72.65336,42.06851],[-72.65366,42.06843],[-72.65382,42.06836],[-72.65394,42.06831],[-72.65433,42.06819],[-72.65465,42.06809],[-72.65466,42.06809],[-72.65477,42.06803],[-72.65497,42.06794],[-72.6549,42.06664],[-72.65407,42.0656],[-72.65366,42.06559],[-72.65362,42.06491],[-72.65359,42.06422],[-72.653,42.06428],[-72.65224,42.06435],[-72.65182,42.06429],[-72.65163,42.06431],[-72.6514,42.06433],[-72.65129,42.06435],[-72.65104,42.0644],[-72.65073,42.06446],[-72.65051,42.06447],[-72.65013,42.06447],[-72.64981,42.06447],[-72.64869,42.06496],[-72.64835,42.06507],[-72.64816,42.06511],[-72.64811,42.06512],[-72.64776,42.06516],[-72.64733,42.06522],[-72.64727,42.06522],[-72.64726,42.06514],[-72.64714,42.06458],[-72.64703,42.06402],[-72.647,42.06386],[-72.64696,42.0637],[-72.64685,42.06314],[-72.6465,42.06291],[-72.64665,42.06216],[-72.64668,42.06203],[-72.64668,42.062],[-72.64677,42.06151],[-72.64686,42.06104],[-72.64686,42.06102],[-72.64687,42.06094],[-72.64689,42.06086],[-72.64681,42.06073],[-72.64673,42.06059],[-72.64677,42.06051],[-72.64683,42.06001],[-72.64672,42.05934],[-72.64666,42.05892],[-72.64817,42.05995],[-72.64948,42.05934],[-72.64992,42.05916],[-72.65027,42.05903],[-72.6507,42.05894],[-72.65169,42.05867],[-72.65225,42.05846],[-72.65251,42.05832],[-72.65289,42.05809],[-72.65318,42.05786],[-72.65394,42.05705],[-72.6542,42.05681],[-72.65451,42.05658],[-72.65489,42.05636],[-72.6551,42.05626],[-72.65547,42.05614],[-72.65562,42.05609],[-72.65589,42.05602],[-72.65616,42.05596],[-72.65665,42.0559],[-72.65687,42.05589],[-72.65732,42.05591],[-72.6578,42.05597],[-72.65804,42.05602],[-72.65864,42.05621],[-72.65892,42.05633],[-72.65918,42.05646],[-72.65943,42.05662],[-72.65965,42.0568],[-72.66,42.05712],[-72.66024,42.05743],[-72.66034,42.0576],[-72.66049,42.05797],[-72.66059,42.05838],[-72.66061,42.05855],[-72.6606,42.05887],[-72.66057,42.05902],[-72.66131,42.05978],[-72.66179,42.05945],[-72.66276,42.05885],[-72.66332,42.05856],[-72.66424,42.05812],[-72.66514,42.05773],[-72.66554,42.05758],[-72.66598,42.05742],[-72.66562,42.05697],[-72.6648,42.05601],[-72.66448,42.05558],[-72.66421,42.05514],[-72.66398,42.0547],[-72.66376,42.05437],[-72.66362,42.05422],[-72.66337,42.054],[-72.6632,42.05388],[-72.66152,42.05275],[-72.66188,42.05189],[-72.66225,42.05104],[-72.6621,42.05095],[-72.66191,42.05085],[-72.66183,42.05081],[-72.66171,42.05076],[-72.66147,42.05065],[-72.66123,42.0505],[-72.66122,42.05049],[-72.66086,42.05027],[-72.66055,42.05017],[-72.66042,42.05013],[-72.66029,42.05008],[-72.66011,42.04999],[-72.66005,42.04997],[-72.65996,42.04992],[-72.65987,42.04987],[-72.65975,42.04978],[-72.65941,42.04953],[-72.65878,42.049],[-72.6587,42.04893],[-72.65857,42.04879],[-72.6583,42.04852],[-72.65813,42.04829],[-72.65788,42.04782],[-72.65775,42.04758],[-72.65767,42.04737],[-72.65732,42.04632],[-72.65731,42.04626],[-72.65723,42.04598],[-72.65713,42.04561],[-72.65696,42.04496],[-72.65695,42.04492],[-72.65694,42.0449],[-72.65693,42.04487],[-72.65692,42.04483],[-72.65677,42.04426],[-72.6566,42.04364],[-72.65659,42.04358],[-72.65657,42.04349],[-72.65656,42.04343],[-72.65655,42.04328],[-72.65654,42.04313],[-72.65677,42.043],[-72.65702,42.04285],[-72.65705,42.04284],[-72.65788,42.04233],[-72.6579,42.04232],[-72.65837,42.04202],[-72.65888,42.0417],[-72.65893,42.04166],[-72.65939,42.04134],[-72.65991,42.04096],[-72.66015,42.04083],[-72.66035,42.04076],[-72.66041,42.04073],[-72.66044,42.04072],[-72.66095,42.04055],[-72.66144,42.04038],[-72.66111,42.03878],[-72.66079,42.03716],[-72.66079,42.03714],[-72.66067,42.0365],[-72.66056,42.03587],[-72.66021,42.03566],[-72.6597,42.03535],[-72.65957,42.03525],[-72.6595,42.03519],[-72.65928,42.03493],[-72.6589,42.03427],[-72.65863,42.0338],[-72.66284,42.0342],[-72.66792,42.03462],[-72.66857,42.03467],[-72.67301,42.03504],[-72.68151,42.03568],[-72.68604,42.03602],[-72.68995,42.03629],[-72.69046,42.03633],[-72.69708,42.03679],[-72.69896,42.03689],[-72.69941,42.03689],[-72.70131,42.03689],[-72.70482,42.03689],[-72.71105,42.03684],[-72.7133,42.03688],[-72.71358,42.03824],[-72.71312,42.03925],[-72.71278,42.04023],[-72.71254,42.04107],[-72.71245,42.04157],[-72.71262,42.04365],[-72.71259,42.04448],[-72.71234,42.04546],[-72.71208,42.04677],[-72.7117,42.04825],[-72.71103,42.04983],[-72.71066,42.05056],[-72.71019,42.05137],[-72.70984,42.05192],[-72.70963,42.05222],[-72.70934,42.05283],[-72.70903,42.05364],[-72.70845,42.055],[-72.70824,42.05541],[-72.7081,42.05585],[-72.70808,42.05596],[-72.70801,42.05628],[-72.70773,42.05817],[-72.70761,42.05971],[-72.70785,42.0616],[-72.70796,42.06255],[-72.7081,42.06402],[-72.70808,42.06453],[-72.70804,42.06492],[-72.70781,42.06589],[-72.70731,42.06835],[-72.70618,42.07325],[-72.70618,42.07351],[-72.70654,42.07375],[-72.70665,42.0741],[-72.70642,42.07621],[-72.70609,42.0805],[-72.70602,42.0808],[-72.70594,42.08126],[-72.70592,42.0814],[-72.70546,42.08251],[-72.70488,42.08379],[-72.70262,42.08834],[-72.70203,42.09083],[-72.70161,42.09154],[-72.70099,42.09249],[-72.70036,42.09389],[-72.69908,42.09636],[-72.69714,42.10062],[-72.69678,42.10125],[-72.69579,42.10299],[-72.69577,42.10305],[-72.69563,42.10351],[-72.69539,42.10465],[-72.69533,42.10482],[-72.69501,42.10546],[-72.6949,42.10567],[-72.69484,42.10578],[-72.69459,42.10621],[-72.69409,42.10547],[-72.6914,42.10568],[-72.6914,42.10618],[-72.69084,42.10633],[-72.6907,42.10634],[-72.69026,42.10628],[-72.68884,42.10628],[-72.68828,42.10636],[-72.68698,42.10645],[-72.68623,42.10663],[-72.68555,42.10674],[-72.68486,42.10702],[-72.68442,42.10715],[-72.68401,42.10723],[-72.68379,42.10723],[-72.68333,42.10714],[-72.68304,42.10698],[-72.68286,42.10679],[-72.68277,42.10662],[-72.68268,42.10634],[-72.68254,42.10602],[-72.68234,42.10521],[-72.68216,42.105],[-72.68211,42.10483],[-72.68214,42.10387],[-72.68185,42.10262],[-72.68185,42.10245],[-72.68208,42.10178],[-72.68214,42.10137],[-72.68213,42.10123],[-72.68164,42.10076],[-72.68134,42.10065],[-72.68016,42.10039],[-72.67992,42.10038],[-72.67987,42.10027],[-72.67908,42.10027],[-72.67908,42.10036],[-72.67892,42.10041],[-72.67879,42.10038],[-72.6785,42.10027],[-72.67848,42.10027],[-72.67816,42.10021],[-72.67796,42.10022],[-72.67782,42.10027],[-72.67773,42.1003],[-72.67711,42.10001],[-72.67665,42.09994],[-72.67644,42.09986],[-72.67603,42.09949],[-72.67555,42.09902],[-72.67523,42.09847],[-72.67522,42.0983],[-72.67513,42.09807],[-72.67485,42.09769],[-72.6745,42.09728],[-72.67401,42.09696],[-72.67369,42.09665],[-72.67322,42.09595],[-72.67297,42.09554],[-72.67249,42.09501],[-72.67195,42.09459],[-72.67107,42.09415],[-72.6702,42.09376],[-72.66937,42.0931],[-72.66885,42.09244],[-72.66893,42.09217],[-72.66826,42.09144],[-72.66806,42.0916],[-72.66701,42.09057],[-72.66685,42.09038],[-72.66667,42.08993],[-72.66653,42.08928],[-72.66644,42.08794],[-72.6664,42.0877],[-72.66631,42.0875],[-72.66541,42.08668],[-72.66484,42.08597],[-72.66428,42.08539],[-72.66406,42.08524],[-72.66373,42.08507],[-72.66328,42.08494],[-72.66275,42.08484],[-72.66229,42.08483],[-72.66158,42.08406],[-72.66124,42.08425],[-72.66101,42.08443],[-72.66081,42.08472],[-72.66055,42.08536],[-72.66093,42.08533],[-72.66061,42.08585],[-72.66055,42.08611],[-72.66122,42.0859],[-72.6606,42.08634],[-72.66087,42.08695],[-72.66096,42.08736],[-72.6597,42.08806],[-72.65978,42.08827],[-72.65993,42.08876],[-72.65993,42.0893],[-72.65997,42.08987],[-72.65998,42.09],[-72.65999,42.09037],[-72.65982,42.09095],[-72.65981,42.09097],[-72.65971,42.09126],[-72.6592,42.09184]]]}},{"type":"Feature","properties":{"POSTCODE":"01106","PC_NAME":"Longmeadow","Municipality":"Longmeadow","State":"MA","County":"Hampden County"},"geometry":{"type":"Polygon","coordinates":[[[-72.53662,42.0637],[-72.53559,42.05781],[-72.53573,42.05766],[-72.53581,42.05759],[-72.53588,42.05754],[-72.53597,42.05749],[-72.53571,42.05719],[-72.53549,42.05694],[-72.53537,42.05682],[-72.53474,42.05296],[-72.53439,42.05085],[-72.5343,42.0503],[-72.53388,42.04769],[-72.53253,42.03942],[-72.53162,42.03451],[-72.53266,42.03443],[-72.53337,42.03438],[-72.53934,42.03371],[-72.54198,42.03347],[-72.54958,42.03275],[-72.55329,42.0324],[-72.5608,42.03156],[-72.561,42.03154],[-72.57164,42.03029],[-72.5728,42.03017],[-72.573,42.03006],[-72.57319,42.02995],[-72.57354,42.02973],[-72.574,42.02946],[-72.57402,42.02944],[-72.57403,42.02944],[-72.57921,42.02643],[-72.58048,42.02567],[-72.58133,42.02516],[-72.58203,42.02476],[-72.58316,42.02482],[-72.58393,42.02481],[-72.58732,42.02486],[-72.5897,42.02489],[-72.58993,42.0249],[-72.59035,42.02492],[-72.59846,42.02503],[-72.60434,42.02515],[-72.60684,42.02521],[-72.60788,42.03097],[-72.60803,42.03284],[-72.608,42.03873],[-72.60767,42.04056],[-72.60759,42.0423],[-72.60745,42.04394],[-72.60716,42.04517],[-72.60681,42.04641],[-72.60591,42.04865],[-72.60539,42.04964],[-72.60054,42.05758],[-72.59766,42.06136],[-72.59482,42.0654],[-72.59218,42.06902],[-72.58932,42.07216],[-72.58794,42.072],[-72.58718,42.07179],[-72.58675,42.07166],[-72.58564,42.07144],[-72.58459,42.07128],[-72.58348,42.07109],[-72.58238,42.07092],[-72.58104,42.07068],[-72.58056,42.07059],[-72.58007,42.07049],[-72.57971,42.07043],[-72.57931,42.07037],[-72.57831,42.07022],[-72.57734,42.07006],[-72.57546,42.06975],[-72.57448,42.0696],[-72.57423,42.06957],[-72.57388,42.06975],[-72.57343,42.06998],[-72.57297,42.07016],[-72.57187,42.07055],[-72.57163,42.07068],[-72.57081,42.07139],[-72.57066,42.07141],[-72.57053,42.07141],[-72.57042,42.07141],[-72.57027,42.07135],[-72.57013,42.07125],[-72.57004,42.07108],[-72.56953,42.07086],[-72.5693,42.0707],[-72.5692,42.07066],[-72.56878,42.07057],[-72.56872,42.07068],[-72.56865,42.07082],[-72.56863,42.07085],[-72.56861,42.0709],[-72.56858,42.07096],[-72.56853,42.07104],[-72.56845,42.07115],[-72.56841,42.07122],[-72.5684,42.07123],[-72.5684,42.07124],[-72.56833,42.07133],[-72.56825,42.07145],[-72.56821,42.07152],[-72.56817,42.07158],[-72.56813,42.07166],[-72.56808,42.07174],[-72.56798,42.07189],[-72.5679,42.072],[-72.56783,42.07202],[-72.56752,42.07205],[-72.56713,42.07205],[-72.56698,42.07204],[-72.56697,42.07204],[-72.56694,42.07204],[-72.56686,42.07203],[-72.56672,42.07203],[-72.56665,42.07203],[-72.56661,42.07203],[-72.56656,42.07203],[-72.56649,42.07203],[-72.56645,42.07203],[-72.56638,42.07203],[-72.56602,42.07196],[-72.56569,42.07185],[-72.56561,42.07182],[-72.56526,42.07169],[-72.565,42.07158],[-72.56487,42.07152],[-72.56482,42.07152],[-72.5646,42.07155],[-72.56425,42.07152],[-72.5642,42.07151],[-72.56404,42.07147],[-72.56394,42.07145],[-72.56391,42.07141],[-72.56386,42.07135],[-72.56382,42.07131],[-72.56376,42.07124],[-72.56371,42.07119],[-72.56369,42.07116],[-72.56361,42.07106],[-72.56353,42.07097],[-72.5635,42.07094],[-72.56339,42.07082],[-72.56325,42.07067],[-72.563,42.0704],[-72.56293,42.07033],[-72.56265,42.06969],[-72.56264,42.06958],[-72.56264,42.06953],[-72.56264,42.06948],[-72.56264,42.06939],[-72.56262,42.06938],[-72.56257,42.06934],[-72.56251,42.06931],[-72.56235,42.06921],[-72.56225,42.06915],[-72.5622,42.06912],[-72.56218,42.06912],[-72.56216,42.0691],[-72.56209,42.06906],[-72.56199,42.069],[-72.56191,42.06895],[-72.56191,42.06894],[-72.56186,42.06891],[-72.56126,42.06809],[-72.56123,42.06769],[-72.56121,42.06753],[-72.55968,42.06732],[-72.55876,42.06737],[-72.55846,42.06738],[-72.55841,42.06733],[-72.55833,42.06705],[-72.55554,42.06664],[-72.5526,42.06615],[-72.55167,42.06601],[-72.54856,42.06554],[-72.54845,42.06552],[-72.54157,42.06449],[-72.53952,42.06418],[-72.53662,42.0637]]]}},{"type":"Feature","properties":{"POSTCODE":"01108","PC_NAME":"Springfield","Municipality":"Springfield","State":"MA","County":"Hampden County"},"geometry":{"type":"Polygon","coordinates":[[[-72.55725,42.09797],[-72.55408,42.09632],[-72.55367,42.09612],[-72.55311,42.09568],[-72.55297,42.09557],[-72.5527,42.09533],[-72.55257,42.09526],[-72.55231,42.0952],[-72.55082,42.09513],[-72.55087,42.09442],[-72.55088,42.09411],[-72.55085,42.09373],[-72.55083,42.09356],[-72.55077,42.09322],[-72.55049,42.0931],[-72.55041,42.09297],[-72.55037,42.09292],[-72.55009,42.09272],[-72.54949,42.09233],[-72.54939,42.09215],[-72.54917,42.09181],[-72.54895,42.09147],[-72.5477,42.09059],[-72.54732,42.09065],[-72.54693,42.0907],[-72.54689,42.09068],[-72.54682,42.09064],[-72.54678,42.09062],[-72.54672,42.09058],[-72.5466,42.0905],[-72.54649,42.09043],[-72.54644,42.09039],[-72.54639,42.09034],[-72.54627,42.09026],[-72.54608,42.09015],[-72.54591,42.09005],[-72.54581,42.08973],[-72.54572,42.0894],[-72.54542,42.08936],[-72.54506,42.08939],[-72.54488,42.08941],[-72.54495,42.08905],[-72.54502,42.08869],[-72.5445,42.08878],[-72.54432,42.0883],[-72.54428,42.08824],[-72.54417,42.08814],[-72.54371,42.08779],[-72.54207,42.08667],[-72.54198,42.08664],[-72.54174,42.08657],[-72.54145,42.08653],[-72.54129,42.08652],[-72.54107,42.08647],[-72.54098,42.08644],[-72.54096,42.08642],[-72.54086,42.08637],[-72.54072,42.08628],[-72.54064,42.08622],[-72.54063,42.08621],[-72.54056,42.08589],[-72.54048,42.08557],[-72.53965,42.08501],[-72.53915,42.08461],[-72.53773,42.08362],[-72.53669,42.08292],[-72.53643,42.08149],[-72.53738,42.08135],[-72.53828,42.08121],[-72.53933,42.08111],[-72.53875,42.08083],[-72.53873,42.08043],[-72.53865,42.07968],[-72.53938,42.07962],[-72.53915,42.07815],[-72.53887,42.07648],[-72.53872,42.07581],[-72.53687,42.07591],[-72.53608,42.07595],[-72.53616,42.07472],[-72.53611,42.07426],[-72.53841,42.07396],[-72.53829,42.07328],[-72.53697,42.07282],[-72.53694,42.07272],[-72.53685,42.07273],[-72.53668,42.07275],[-72.53652,42.07277],[-72.53618,42.0728],[-72.53577,42.07285],[-72.53574,42.07272],[-72.53587,42.07264],[-72.53645,42.07227],[-72.53648,42.07146],[-72.53633,42.07123],[-72.536,42.07091],[-72.5359,42.07081],[-72.53568,42.0706],[-72.53573,42.07054],[-72.53575,42.07051],[-72.53579,42.07046],[-72.53581,42.07043],[-72.5359,42.07034],[-72.53607,42.07015],[-72.53608,42.07014],[-72.53635,42.06967],[-72.53639,42.06955],[-72.53645,42.0693],[-72.53649,42.06913],[-72.53651,42.06907],[-72.53658,42.06885],[-72.53668,42.06857],[-72.5367,42.06851],[-72.53678,42.06831],[-72.53684,42.06815],[-72.5367,42.0679],[-72.53641,42.0673],[-72.53674,42.06699],[-72.53675,42.06698],[-72.53707,42.0668],[-72.5372,42.06673],[-72.53673,42.06426],[-72.53662,42.0637],[-72.53952,42.06418],[-72.54157,42.06449],[-72.54845,42.06552],[-72.54856,42.06554],[-72.55167,42.06601],[-72.5526,42.06615],[-72.55554,42.06664],[-72.55833,42.06705],[-72.55841,42.06733],[-72.55846,42.06738],[-72.55876,42.06737],[-72.55968,42.06732],[-72.56121,42.06753],[-72.56123,42.06769],[-72.56126,42.06809],[-72.56186,42.06891],[-72.56191,42.06894],[-72.56191,42.06895],[-72.56199,42.069],[-72.56209,42.06906],[-72.56216,42.0691],[-72.56218,42.06912],[-72.5622,42.06912],[-72.56225,42.06915],[-72.56235,42.06921],[-72.56251,42.06931],[-72.56257,42.06934],[-72.56262,42.06938],[-72.56264,42.06939],[-72.56264,42.06948],[-72.56264,42.06953],[-72.56264,42.06958],[-72.56265,42.06969],[-72.56293,42.07033],[-72.563,42.0704],[-72.56325,42.07067],[-72.56339,42.07082],[-72.5635,42.07094],[-72.56353,42.07097],[-72.56361,42.07106],[-72.56369,42.07116],[-72.56371,42.07119],[-72.56376,42.07124],[-72.56382,42.07131],[-72.56386,42.07135],[-72.56391,42.07141],[-72.56394,42.07145],[-72.56404,42.07147],[-72.5642,42.07151],[-72.56425,42.07152],[-72.5646,42.07155],[-72.56482,42.07152],[-72.56487,42.07152],[-72.565,42.07158],[-72.56526,42.07169],[-72.56561,42.07182],[-72.56569,42.07185],[-72.56602,42.07196],[-72.56638,42.07203],[-72.56645,42.07203],[-72.56649,42.07203],[-72.56656,42.07203],[-72.56661,42.07203],[-72.56665,42.07203],[-72.56672,42.07203],[-72.56686,42.07203],[-72.56694,42.07204],[-72.56697,42.07204],[-72.56698,42.07204],[-72.56713,42.07205],[-72.56752,42.07205],[-72.56783,42.07202],[-72.5679,42.072],[-72.56798,42.07189],[-72.56808,42.07174],[-72.56813,42.07166],[-72.56817,42.07158],[-72.56821,42.07152],[-72.56825,42.07145],[-72.56833,42.07133],[-72.5684,42.07124],[-72.5684,42.07123],[-72.56841,42.07122],[-72.56845,42.07115],[-72.56853,42.07104],[-72.56858,42.07096],[-72.56861,42.0709],[-72.56863,42.07085],[-72.56865,42.07082],[-72.56872,42.07068],[-72.56878,42.07057],[-72.5692,42.07066],[-72.5693,42.0707],[-72.56953,42.07086],[-72.57004,42.07108],[-72.57013,42.07125],[-72.57027,42.07135],[-72.57042,42.07141],[-72.57053,42.07141],[-72.57066,42.07141],[-72.57081,42.07139],[-72.57163,42.07068],[-72.57187,42.07055],[-72.57297,42.07016],[-72.57343,42.06998],[-72.57388,42.06975],[-72.57423,42.06957],[-72.57448,42.0696],[-72.57546,42.06975],[-72.57734,42.07006],[-72.57831,42.07022],[-72.57931,42.07037],[-72.57971,42.07043],[-72.58007,42.07049],[-72.58056,42.07059],[-72.58104,42.07068],[-72.58238,42.07092],[-72.58348,42.07109],[-72.58459,42.07128],[-72.58564,42.07144],[-72.58675,42.07166],[-72.58718,42.07179],[-72.58794,42.072],[-72.58932,42.07216],[-72.58885,42.07296],[-72.58804,42.07404],[-72.58699,42.07508],[-72.58444,42.07731],[-72.58354,42.07822],[-72.5829,42.07912],[-72.58261,42.08005],[-72.58253,42.08086],[-72.58274,42.0816],[-72.58386,42.08613],[-72.58428,42.08718],[-72.5829,42.08783],[-72.58249,42.08802],[-72.58239,42.08807],[-72.58223,42.08771],[-72.58179,42.08659],[-72.58079,42.08406],[-72.58034,42.0829],[-72.58011,42.08233],[-72.57899,42.08227],[-72.57831,42.08202],[-72.57768,42.08217],[-72.5777,42.08235],[-72.57771,42.0824],[-72.57772,42.08251],[-72.57772,42.08272],[-72.57772,42.08289],[-72.57776,42.08297],[-72.57782,42.08308],[-72.57785,42.08316],[-72.57791,42.0833],[-72.57794,42.08338],[-72.57795,42.08341],[-72.57796,42.08345],[-72.57799,42.08354],[-72.578,42.0836],[-72.57801,42.08362],[-72.57803,42.08366],[-72.57806,42.08374],[-72.5781,42.08382],[-72.57814,42.08389],[-72.57816,42.08392],[-72.57818,42.08397],[-72.57819,42.08398],[-72.57828,42.08413],[-72.5783,42.08415],[-72.57834,42.08421],[-72.57845,42.0844],[-72.57855,42.08462],[-72.57862,42.08484],[-72.57866,42.08504],[-72.57868,42.08514],[-72.57983,42.08575],[-72.58018,42.08679],[-72.58028,42.08711],[-72.58026,42.08724],[-72.58023,42.08733],[-72.58017,42.0874],[-72.57993,42.08754],[-72.57979,42.08758],[-72.57903,42.08797],[-72.57885,42.08806],[-72.57869,42.08818],[-72.57861,42.08827],[-72.57854,42.08839],[-72.57851,42.08849],[-72.5785,42.08862],[-72.57854,42.08883],[-72.57857,42.08894],[-72.57863,42.08912],[-72.57871,42.08925],[-72.57864,42.0897],[-72.57833,42.08982],[-72.57938,42.09012],[-72.57958,42.09099],[-72.57902,42.09224],[-72.57832,42.09257],[-72.5767,42.09358],[-72.57604,42.09342],[-72.57612,42.09312],[-72.57543,42.09318],[-72.57474,42.09323],[-72.57465,42.09315],[-72.57457,42.09313],[-72.5745,42.09313],[-72.57443,42.09314],[-72.57426,42.09319],[-72.57414,42.09326],[-72.57393,42.09336],[-72.57382,42.09341],[-72.57371,42.09346],[-72.57357,42.09351],[-72.57339,42.09357],[-72.57322,42.09362],[-72.5731,42.09366],[-72.57299,42.09368],[-72.57237,42.0937],[-72.57188,42.09363],[-72.57163,42.0936],[-72.57145,42.0936],[-72.57109,42.0936],[-72.57089,42.0936],[-72.57068,42.09362],[-72.57036,42.09365],[-72.56998,42.09367],[-72.56988,42.09366],[-72.56977,42.09363],[-72.5697,42.0936],[-72.56964,42.09357],[-72.56955,42.09362],[-72.56935,42.09378],[-72.56913,42.094],[-72.56904,42.09405],[-72.56869,42.09414],[-72.56837,42.09417],[-72.56787,42.09418],[-72.56779,42.09418],[-72.56621,42.09417],[-72.56598,42.09421],[-72.56581,42.09426],[-72.56554,42.09436],[-72.56542,42.09443],[-72.56522,42.09456],[-72.56497,42.09477],[-72.56464,42.09509],[-72.56449,42.09528],[-72.56442,42.09545],[-72.56433,42.09581],[-72.56427,42.09593],[-72.56407,42.09621],[-72.56397,42.09643],[-72.56386,42.09678],[-72.56374,42.09699],[-72.56364,42.09702],[-72.5629,42.09726],[-72.56256,42.09737],[-72.56212,42.09748],[-72.56143,42.09751],[-72.56091,42.09749],[-72.56079,42.09803],[-72.56038,42.09806],[-72.56026,42.0981],[-72.56015,42.09817],[-72.55998,42.09839],[-72.55975,42.09859],[-72.5596,42.09868],[-72.55946,42.09874],[-72.55914,42.09878],[-72.55881,42.09874],[-72.55873,42.09871],[-72.55852,42.09853],[-72.55823,42.09841],[-72.55806,42.09841],[-72.55786,42.09847],[-72.55725,42.09797]]]}},{"type":"Feature","properties":{"POSTCODE":"01129","PC_NAME":"Springfield","Municipality":"Springfield","State":"MA","County":"Hampden County"},"geometry":{"type":"Polygon","coordinates":[[[-72.47148,42.09172],[-72.47173,42.09169],[-72.47416,42.09414],[-72.47542,42.09396],[-72.4752,42.09357],[-72.47645,42.09291],[-72.47898,42.09336],[-72.47952,42.09454],[-72.47977,42.09436],[-72.47992,42.09493],[-72.48001,42.09527],[-72.48004,42.09534],[-72.48005,42.09536],[-72.48008,42.09543],[-72.48015,42.09577],[-72.48016,42.096],[-72.48016,42.09604],[-72.48055,42.09629],[-72.48063,42.09639],[-72.48152,42.09694],[-72.48152,42.09699],[-72.48161,42.09709],[-72.48187,42.0974],[-72.4819,42.09745],[-72.48187,42.09749],[-72.48184,42.09789],[-72.48183,42.09795],[-72.48173,42.098],[-72.48174,42.09805],[-72.48181,42.09816],[-72.4818,42.0982],[-72.48177,42.09823],[-72.48168,42.09829],[-72.48168,42.09841],[-72.48171,42.09848],[-72.48168,42.09853],[-72.48149,42.09865],[-72.48169,42.09887],[-72.48148,42.09883],[-72.48143,42.09918],[-72.48137,42.09924],[-72.48137,42.09933],[-72.48149,42.09944],[-72.48149,42.09948],[-72.48136,42.09958],[-72.48136,42.09969],[-72.48141,42.09975],[-72.48139,42.09983],[-72.4813,42.10016],[-72.4813,42.10024],[-72.48148,42.1005],[-72.48148,42.10059],[-72.48158,42.10066],[-72.48179,42.10071],[-72.48186,42.10077],[-72.48187,42.1008],[-72.48186,42.10087],[-72.48177,42.101],[-72.48178,42.10106],[-72.482,42.10124],[-72.48206,42.10133],[-72.48204,42.10144],[-72.48199,42.10147],[-72.48193,42.10147],[-72.48186,42.10145],[-72.48176,42.10147],[-72.48146,42.10168],[-72.48146,42.10182],[-72.48128,42.10195],[-72.48124,42.10221],[-72.48124,42.10228],[-72.48131,42.10233],[-72.48147,42.10227],[-72.48159,42.1022],[-72.48166,42.10221],[-72.48192,42.10277],[-72.48193,42.10296],[-72.48198,42.10304],[-72.48214,42.10318],[-72.48217,42.10339],[-72.48235,42.10363],[-72.48238,42.10377],[-72.48246,42.10385],[-72.48258,42.10391],[-72.48265,42.10397],[-72.48268,42.10403],[-72.48273,42.10418],[-72.48274,42.1042],[-72.48279,42.10429],[-72.4829,42.10439],[-72.48322,42.10452],[-72.48371,42.10479],[-72.48403,42.10491],[-72.48435,42.10498],[-72.48451,42.10458],[-72.48518,42.10474],[-72.48603,42.10522],[-72.48634,42.10428],[-72.48737,42.10416],[-72.48754,42.10453],[-72.48778,42.10454],[-72.48802,42.10455],[-72.4881,42.10439],[-72.48819,42.10421],[-72.48822,42.10416],[-72.48826,42.10408],[-72.48827,42.10406],[-72.48829,42.10403],[-72.4884,42.10377],[-72.4885,42.10352],[-72.48851,42.10351],[-72.48852,42.10347],[-72.48861,42.10325],[-72.4887,42.10302],[-72.48873,42.10293],[-72.48877,42.10286],[-72.48878,42.10284],[-72.48893,42.10305],[-72.48903,42.10318],[-72.48928,42.10351],[-72.48934,42.10346],[-72.48944,42.10343],[-72.49075,42.10323],[-72.49201,42.10306],[-72.49229,42.10429],[-72.49231,42.10434],[-72.49237,42.1044],[-72.49252,42.10444],[-72.49263,42.10445],[-72.49353,42.10434],[-72.49378,42.1043],[-72.49389,42.10422],[-72.49393,42.10409],[-72.49391,42.10393],[-72.49364,42.10286],[-72.49503,42.1027],[-72.49577,42.10192],[-72.49604,42.10119],[-72.4965,42.09989],[-72.49776,42.09998],[-72.49812,42.10085],[-72.49905,42.10108],[-72.50021,42.10171],[-72.50081,42.10175],[-72.50145,42.10193],[-72.50182,42.10192],[-72.50226,42.10164],[-72.50272,42.10152],[-72.50317,42.10158],[-72.50389,42.10155],[-72.50452,42.10166],[-72.50513,42.10193],[-72.5051,42.1026],[-72.50504,42.10298],[-72.50498,42.1032],[-72.50604,42.10378],[-72.506,42.10392],[-72.50599,42.10401],[-72.50597,42.10425],[-72.50567,42.10466],[-72.50538,42.10507],[-72.50543,42.10575],[-72.50559,42.1057],[-72.50544,42.10638],[-72.50538,42.10646],[-72.50523,42.1066],[-72.50522,42.10662],[-72.5052,42.10689],[-72.50522,42.10716],[-72.50523,42.10726],[-72.50517,42.10735],[-72.50508,42.1075],[-72.50499,42.10762],[-72.50494,42.10767],[-72.50485,42.10778],[-72.50468,42.10806],[-72.50467,42.10808],[-72.50464,42.10814],[-72.50455,42.1083],[-72.50451,42.10836],[-72.50447,42.10842],[-72.50441,42.1085],[-72.5043,42.10867],[-72.50423,42.10876],[-72.50414,42.10886],[-72.50412,42.10888],[-72.5041,42.1089],[-72.504,42.10899],[-72.50374,42.10939],[-72.50371,42.10947],[-72.50363,42.10963],[-72.5034,42.10998],[-72.50323,42.11024],[-72.50282,42.11079],[-72.50264,42.11097],[-72.50247,42.11115],[-72.50244,42.11119],[-72.50235,42.11131],[-72.50222,42.11146],[-72.50178,42.11187],[-72.50151,42.11208],[-72.50131,42.11193],[-72.50091,42.1116],[-72.50033,42.11111],[-72.50015,42.11099],[-72.49917,42.11031],[-72.49929,42.11073],[-72.49933,42.11093],[-72.49934,42.11117],[-72.49933,42.1114],[-72.4993,42.11168],[-72.49925,42.1119],[-72.49914,42.11224],[-72.49896,42.11271],[-72.49867,42.11348],[-72.4992,42.1138],[-72.49973,42.11411],[-72.49962,42.11419],[-72.49945,42.11437],[-72.49938,42.11445],[-72.49937,42.11448],[-72.49933,42.11453],[-72.4989,42.11467],[-72.49847,42.1148],[-72.49859,42.11531],[-72.49871,42.11589],[-72.49887,42.1167],[-72.4989,42.11704],[-72.49892,42.11724],[-72.49892,42.11764],[-72.49887,42.11824],[-72.49874,42.11884],[-72.49858,42.11939],[-72.49833,42.12016],[-72.49828,42.12035],[-72.49808,42.12094],[-72.49805,42.12104],[-72.49796,42.12129],[-72.49775,42.12202],[-72.49743,42.12307],[-72.4972,42.12391],[-72.49689,42.12501],[-72.49675,42.12553],[-72.49668,42.12583],[-72.49659,42.12611],[-72.49652,42.12637],[-72.49647,42.12655],[-72.49616,42.1276],[-72.49592,42.12843],[-72.49572,42.12918],[-72.49569,42.12936],[-72.49569,42.12952],[-72.49572,42.13002],[-72.49575,42.13087],[-72.49575,42.13137],[-72.49576,42.13176],[-72.49577,42.13258],[-72.49578,42.1334],[-72.49578,42.13389],[-72.4958,42.13462],[-72.49582,42.13509],[-72.49584,42.13559],[-72.49585,42.13588],[-72.49586,42.13627],[-72.49587,42.13712],[-72.49589,42.13761],[-72.4959,42.13851],[-72.49592,42.13896],[-72.49593,42.13942],[-72.49593,42.13985],[-72.49592,42.14026],[-72.49588,42.14062],[-72.49587,42.14081],[-72.4958,42.14158],[-72.49596,42.14168],[-72.49614,42.1418],[-72.49618,42.14183],[-72.49631,42.14191],[-72.49642,42.14197],[-72.49647,42.14195],[-72.49655,42.14192],[-72.49661,42.14189],[-72.49688,42.14189],[-72.49733,42.14179],[-72.49762,42.14171],[-72.49776,42.1417],[-72.49783,42.1417],[-72.4981,42.14163],[-72.49838,42.14156],[-72.49846,42.14155],[-72.49857,42.14153],[-72.4986,42.14152],[-72.49895,42.14147],[-72.49927,42.14146],[-72.49946,42.14141],[-72.49961,42.14137],[-72.50032,42.14128],[-72.50061,42.14127],[-72.50071,42.14127],[-72.50097,42.14122],[-72.50132,42.14045],[-72.50161,42.14042],[-72.50201,42.1416],[-72.50205,42.14171],[-72.50262,42.14339],[-72.50294,42.14436],[-72.50299,42.14452],[-72.50323,42.14534],[-72.50116,42.14571],[-72.49913,42.14606],[-72.49733,42.14638],[-72.49539,42.14671],[-72.49407,42.14694],[-72.49311,42.14711],[-72.49105,42.14748],[-72.48877,42.14788],[-72.48619,42.14834],[-72.48452,42.14864],[-72.48288,42.14894],[-72.48274,42.14788],[-72.48265,42.14648],[-72.48248,42.14629],[-72.48266,42.14621],[-72.48233,42.14492],[-72.48232,42.1449],[-72.48199,42.14357],[-72.48132,42.14093],[-72.4812,42.14046],[-72.48111,42.14011],[-72.48104,42.13982],[-72.48056,42.13792],[-72.48006,42.13526],[-72.4797,42.13339],[-72.47865,42.128],[-72.4784,42.12672],[-72.47839,42.12668],[-72.47766,42.12275],[-72.47735,42.12115],[-72.47707,42.11969],[-72.47694,42.11902],[-72.47673,42.11797],[-72.47646,42.11656],[-72.47516,42.10982],[-72.47403,42.10395],[-72.47388,42.10319],[-72.47249,42.09655],[-72.47148,42.09172]]]}}]}